{"type":"FeatureCollection","features":[{"type":"Feature","properties":{"name":"Вознесенский собор","kind":"Высотная доминанта"},"geometry":{"type":"Point","coordinates":[41.390962,54.937137]}},{"type":"Feature","properties":{"name":"Благовещенская ц.","kind":"Высотная доминанта"},"geometry":{"type":"Point","coordinates":[41.388462,54.936262]}},{"type":"Feature","properties":{"name":"Успенская ц.","kind":"Высотная доминанта"},"geometry":{"type":"Point","coordinates":[41.391723,54.936127]}},{"type":"Feature","properties":{"name":"Троицкая ц.","kind":"Высотная доминанта"},"geometry":{"type":"Point","coordinates":[41.379495,54.941256]}},{"type":"Feature","properties":{"name":"Никольская ц.","kind":"Высотная доминанта"},"geometry":{"type":"Point","coordinates":[41.386742,54.940126]}},{"type":"Feature","properties":{"name":"Георгиевская ц.","kind":"Высотная доминанта"},"geometry":{"type":"Point","coordinates":[41.404100,54.924887]}},{"type":"Feature","properties":{"name":"Ильинская ц.","kind":"Высотная доминанта"},"geometry":{"type":"Point","coordinates":[41.411118,54.915818]}},{"type":"Feature","properties":{"name":"Старая Татарская мечеть","kind":"Высотная доминанта"},"geometry":{"type":"Point","coordinates":[41.397737,54.933214]}}]}