{"type":"FeatureCollection","features":[{"type":"Feature","properties":{"name":"Ансамбль Соборной площади"},"geometry":{"type":"Polygon","coordinates":[[[41.389541,54.935565],[41.389383,54.935561],[41.389203,54.935607],[41.388184,54.936180],[41.388125,54.936235],[41.388095,54.936297],[41.388117,54.936403],[41.389046,54.937829],[41.389784,54.938347],[41.389973,54.938408],[41.390119,54.938412],[41.392255,54.938228],[41.392410,54.938194],[41.392989,54.937918],[41.393062,54.937838],[41.393074,54.937748],[41.392617,54.936600],[41.392031,54.935999],[41.391928,54.935931],[41.391788,54.935892],[41.389541,54.935565]]]}},{"type":"Feature","properties":{"name":"Линейный ансамбль ул. Советской"},"geometry":{"type":"Polygon","coordinates":[[[41.393437,54.937833],[41.393256,54.937776],[41.393075,54.937754],[41.393049,54.937859],[41.392963,54.937935],[41.392444,54.938180],[41.392321,54.938218],[41.392378,54.938326],[41.392491,54.938425],[41.398360,54.941536],[41.398540,54.941594],[41.398810,54.941620],[41.399013,54.941600],[41.399251,54.941521],[41.399418,54.941396],[41.399490,54.941244],[41.399455,54.941087],[41.399319,54.940951],[41.396672,54.939531],[41.393437,54.937833]]]}},{"type":"Feature","properties":{"name":"Татарская слобода"},"geometry":{"type":"Polygon","coordinates":[[[41.399885,54.931031],[41.399726,54.930975],[41.399587,54.930959],[41.399402,54.930976],[41.399279,54.931016],[41.396257,54.932672],[41.396153,54.932758],[41.396113,54.932860],[41.396143,54.932964],[41.396273,54.933071],[41.399327,54.934603],[41.399480,54.934654],[41.399611,54.934669],[41.399743,54.934662],[41.399905,54.934620],[41.400285,54.934398],[41.400368,54.934330],[41.400863,54.933201],[41.400705,54.931530],[41.400601,54.931417],[41.399885,54.931031]]]}},{"type":"Feature","properties":{"name":"Набережная (д. 21–36)"},"geometry":{"type":"Polygon","coordinates":[[[41.382028,54.938728],[41.382178,54.938642],[41.382259,54.938529],[41.382268,54.938437],[41.382207,54.938320],[41.382073,54.938226],[41.381887,54.938167],[41.381676,54.938154],[41.381521,54.938175],[41.375207,54.940060],[41.375088,54.940121],[41.374985,54.940227],[41.374960,54.940347],[41.374994,54.940436],[41.375105,54.940539],[41.375325,54.940621],[41.375534,54.940638],[41.375738,54.940609],[41.380552,54.939297],[41.382028,54.938728]]]}}]}