{"type":"FeatureCollection","features":[{"type":"Feature","properties":{"name":"Склон левого берега Оки","kind":"Ландшафт"},"geometry":{"type":"LineString","coordinates":[[41.371935,54.940443],[41.373516,54.939950],[41.374853,54.939375],[41.376068,54.939042],[41.377664,54.938509],[41.378475,54.938259],[41.380940,54.937361],[41.382907,54.936697],[41.383024,54.936515],[41.383132,54.936392],[41.383373,54.936347],[41.383562,54.936347],[41.384912,54.936001],[41.386849,54.93484],[41.396760,54.928698],[41.400562,54.924963],[41.401555,54.924170],[41.402573,54.923123],[41.402868,54.922399],[41.405254,54.919180],[41.406159,54.917879],[41.406206,54.917572],[41.405858,54.916724],[41.405831,54.916527],[41.405862,54.916174],[41.405975,54.915911],[41.406492,54.915470],[41.406842,54.915245],[41.406982,54.915057],[41.407027,54.914893],[41.406960,54.914780]]}}]}