{"type":"FeatureCollection","features":[{"type":"Feature","properties":{"id":"1","name":"Текие Авгана, 1616 год","address":"улица Малоокская, 21","category":"Федерального значения","group":"federal","source":"Приказ № 2969, прил. 2 + ЕГРОКН","method":"ЕГРОКН: координаты реестра","accuracy":"точно (реестр / здание по адресу)","in_settlement":true,"in_core":false},"geometry":{"type":"Point","coordinates":[41.420213,54.916981]}},{"type":"Feature","properties":{"id":"2","name":"Обелиски Петровской заставы, XVIII век","address":"улица Набережная","category":"Федерального значения","group":"federal","source":"Приказ № 2969, прил. 2 + ЕГРОКН","method":"ЕГРОКН: координаты реестра","accuracy":"точно (реестр / здание по адресу)","in_settlement":false,"in_core":false},"geometry":{"type":"Point","coordinates":[41.371094,54.941890]}},{"type":"Feature","properties":{"id":"3","name":"Дом Барковых, 1828 год","address":"улица Набережная, 21","category":"Федерального значения","group":"federal","source":"Приказ № 2969, прил. 2 + ЕГРОКН","method":"ЕГРОКН: координаты реестра","accuracy":"точно (реестр / здание по адресу)","in_settlement":true,"in_core":false},"geometry":{"type":"Point","coordinates":[41.375504,54.940324]}},{"type":"Feature","properties":{"id":"4","name":"Ансамбль Никольской церкви, 1703-1705 гг., XIX в.","address":"площадь Никольская, 11а","category":"Федерального значения","group":"federal","source":"Приказ № 2969, прил. 2 + ЕГРОКН","method":"ЕГРОКН: координаты реестра","accuracy":"точно (реестр / здание по адресу)","in_settlement":true,"in_core":false},"geometry":{"type":"Point","coordinates":[41.38671,54.940060]}},{"type":"Feature","properties":{"id":"5","name":"Церковь Георгиевская, 1700 год","address":"улица Октябрьская, 8а","category":"Федерального значения","group":"federal","source":"Приказ № 2969, прил. 2 + ЕГРОКН","method":"ЕГРОКН: координаты реестра","accuracy":"точно (реестр / здание по адресу)","in_settlement":true,"in_core":false},"geometry":{"type":"Point","coordinates":[41.404032,54.924936]}},{"type":"Feature","properties":{"id":"6","name":"Старая Татарская мечеть, 1476 год","address":"площадь Победы, 9а","category":"Федерального значения","group":"federal","source":"Приказ № 2969, прил. 2 + ЕГРОКН","method":"ЕГРОКН: координаты реестра","accuracy":"точно (реестр / здание по адресу)","in_settlement":true,"in_core":false},"geometry":{"type":"Point","coordinates":[41.397678,54.933244]}},{"type":"Feature","properties":{"id":"7","name":"Текие Шах-Али, 1555 год","address":"площадь Победы, 9б","category":"Федерального значения","group":"federal","source":"Приказ № 2969, прил. 2 + ЕГРОКН","method":"ЕГРОКН: координаты реестра","accuracy":"точно (реестр / здание по адресу)","in_settlement":true,"in_core":false},"geometry":{"type":"Point","coordinates":[41.396580,54.932867]}},{"type":"Feature","properties":{"id":"8","name":"Церковь Троицы, 1756 год","address":"площадь Свердлова, 1б","category":"Федерального значения","group":"federal","source":"Приказ № 2969, прил. 2 + ЕГРОКН","method":"ЕГРОКН: координаты реестра","accuracy":"точно (реестр / здание по адресу)","in_settlement":true,"in_core":false},"geometry":{"type":"Point","coordinates":[41.379482,54.941304]}},{"type":"Feature","properties":{"id":"9","name":"Церковь Благовещения, 1700 год","address":"площадь Соборная, 13а","category":"Федерального значения","group":"federal","source":"Приказ № 2969, прил. 2 + ЕГРОКН","method":"ЕГРОКН: координаты реестра","accuracy":"точно (реестр / здание по адресу)","in_settlement":true,"in_core":true},"geometry":{"type":"Point","coordinates":[41.388482,54.936325]}},{"type":"Feature","properties":{"id":"10","name":"Три корпуса Торговых рядов, XIX век","address":"площадь Соборная, 3а","category":"Федерального значения","group":"federal","source":"Приказ № 2969, прил. 2 + ЕГРОКН","method":"ЕГРОКН: координаты реестра","accuracy":"точно (реестр / здание по адресу)","in_settlement":true,"in_core":true},"geometry":{"type":"Point","coordinates":[41.390202,54.936229]}},{"type":"Feature","properties":{"id":"11","name":"Дом Наставина, XVIII век","address":"площадь Соборная, 17","category":"Федерального значения","group":"federal","source":"Приказ № 2969, прил. 2 + ЕГРОКН","method":"ЕГРОКН: координаты реестра","accuracy":"точно (реестр / здание по адресу)","in_settlement":true,"in_core":true},"geometry":{"type":"Point","coordinates":[41.390061,54.938189]}},{"type":"Feature","properties":{"id":"12","name":"Церковь Успения, XVIII век","address":"площадь Соборная, 1а","category":"Федерального значения","group":"federal","source":"Приказ № 2969, прил. 2 + ЕГРОКН","method":"OSM: здание по адресу","accuracy":"точно (реестр / здание по адресу)","in_settlement":true,"in_core":true},"geometry":{"type":"Point","coordinates":[41.391692,54.936110]}},{"type":"Feature","properties":{"id":"13","name":"Колокольня церкви Успения, XVIII век","address":"площадь Соборная, 1а","category":"Федерального значения","group":"federal","source":"Приказ № 2969, прил. 2 + ЕГРОКН","method":"OSM: здание по адресу","accuracy":"точно (реестр / здание по адресу)","in_settlement":true,"in_core":true},"geometry":{"type":"Point","coordinates":[41.391692,54.936110]}},{"type":"Feature","properties":{"id":"15","name":"Дом Слетова, конец XVIII века","address":"улица Губарева, 2","category":"Регионального значения","group":"regional","source":"Приказ № 2969, прил. 2 + ЕГРОКН","method":"ЕГРОКН: координаты реестра","accuracy":"точно (реестр / здание по адресу)","in_settlement":true,"in_core":true},"geometry":{"type":"Point","coordinates":[41.392176,54.936035]}},{"type":"Feature","properties":{"id":"16","name":"Дом, начало XIX века","address":"улица Илюшкина, 6","category":"Регионального значения","group":"regional","source":"Приказ № 2969, прил. 2 + ЕГРОКН","method":"ЕГРОКН: координаты реестра","accuracy":"точно (реестр / здание по адресу)","in_settlement":true,"in_core":false},"geometry":{"type":"Point","coordinates":[41.400522,54.935452]}},{"type":"Feature","properties":{"id":"17","name":"Дом Салазкина (Баркова), начало XIX века","address":"улица Карла Маркса, 2/17","category":"Ценный градоформирующий объект","group":"value","source":"Приказ № 2969, прил. 2","method":"OSM: здание по адресу","accuracy":"точно (реестр / здание по адресу)","in_settlement":true,"in_core":false},"geometry":{"type":"Point","coordinates":[41.390854,54.941308]}},{"type":"Feature","properties":{"id":"18","name":"Склады Салазкина (Баркова), начало XIX века","address":"улица Карла Маркса, 2/17","category":"Ценный градоформирующий объект","group":"value","source":"Приказ № 2969, прил. 2","method":"OSM: здание по адресу","accuracy":"точно (реестр / здание по адресу)","in_settlement":true,"in_core":false},"geometry":{"type":"Point","coordinates":[41.390854,54.941308]}},{"type":"Feature","properties":{"id":"19","name":"Дом (угловой), начало XIX века","address":"улица Карла Маркса, 10","category":"Регионального значения","group":"regional","source":"Приказ № 2969, прил. 2 + ЕГРОКН","method":"ЕГРОКН: координаты реестра","accuracy":"точно (реестр / здание по адресу)","in_settlement":true,"in_core":true},"geometry":{"type":"Point","coordinates":[41.393012,54.940722]}},{"type":"Feature","properties":{"id":"20","name":"Дом Назымова (угловой), XIX век","address":"улица Карла Либкнехта, 13","category":"Регионального значения","group":"regional","source":"Приказ № 2969, прил. 2 + ЕГРОКН","method":"ЕГРОКН: координаты реестра","accuracy":"точно (реестр / здание по адресу)","in_settlement":true,"in_core":true},"geometry":{"type":"Point","coordinates":[41.39338,54.941336]}},{"type":"Feature","properties":{"id":"21","name":"Дом Скорнякова, начало XIX века","address":"улица Карла Либкнехта, 8","category":"Регионального значения","group":"regional","source":"Приказ № 2969, прил. 2 + ЕГРОКН","method":"ЕГРОКН: координаты реестра","accuracy":"точно (реестр / здание по адресу)","in_settlement":true,"in_core":false},"geometry":{"type":"Point","coordinates":[41.394773,54.941001]}},{"type":"Feature","properties":{"id":"22","name":"Дом Вереина, начало XIX века","address":"улица Набережная, 29","category":"Регионального значения","group":"regional","source":"Приказ № 2969, прил. 2 + ЕГРОКН","method":"ЕГРОКН: координаты реестра","accuracy":"точно (реестр / здание по адресу)","in_settlement":true,"in_core":false},"geometry":{"type":"Point","coordinates":[41.379143,54.939327]}},{"type":"Feature","properties":{"id":"23","name":"Дом Шемякина (с плафоном и печами), начало XIX века","address":"улица Набережная, 33","category":"Ценный градоформирующий объект","group":"value","source":"Приказ № 2969, прил. 2","method":"интерполяция между д. 31 и 35","accuracy":"приблизительно (соседние дома)","in_settlement":true,"in_core":false},"geometry":{"type":"Point","coordinates":[41.380487,54.938883]}},{"type":"Feature","properties":{"id":"24","name":"Дом Кострова, 1837-1844 годы","address":"улица Набережная, 77","category":"Регионального значения","group":"regional","source":"Приказ № 2969, прил. 2 + ЕГРОКН","method":"ЕГРОКН: координаты реестра","accuracy":"точно (реестр / здание по адресу)","in_settlement":true,"in_core":true},"geometry":{"type":"Point","coordinates":[41.392134,54.933022]}},{"type":"Feature","properties":{"id":"26","name":"Здание выездной сессии, казначейства и мирового суда, XIX век","address":"улица Советская, 1","category":"Регионального значения","group":"regional","source":"Приказ № 2969, прил. 2 + ЕГРОКН","method":"ЕГРОКН: координаты реестра","accuracy":"точно (реестр / здание по адресу)","in_settlement":true,"in_core":true},"geometry":{"type":"Point","coordinates":[41.391478,54.937570]}},{"type":"Feature","properties":{"id":"27","name":"Здание Городской управы, 1853 год","address":"улица Советская, 2","category":"Регионального значения","group":"regional","source":"Приказ № 2969, прил. 2 + ЕГРОКН","method":"ЕГРОКН: координаты реестра","accuracy":"точно (реестр / здание по адресу)","in_settlement":true,"in_core":true},"geometry":{"type":"Point","coordinates":[41.391853,54.937142]}},{"type":"Feature","properties":{"id":"28","name":"Здание технического училища, XIX век","address":"улица Советская, 18","category":"Регионального значения","group":"regional","source":"Приказ № 2969, прил. 2 + ЕГРОКН","method":"ЕГРОКН: координаты реестра","accuracy":"точно (реестр / здание по адресу)","in_settlement":true,"in_core":true},"geometry":{"type":"Point","coordinates":[41.396309,54.938995]}},{"type":"Feature","properties":{"id":"29","name":"Татарская лавка, XIX век","address":"улица Советская, 49","category":"Регионального значения","group":"regional","source":"Приказ № 2969, прил. 2 + ЕГРОКН","method":"OSM: здание по адресу","accuracy":"точно (реестр / здание по адресу)","in_settlement":true,"in_core":false},"geometry":{"type":"Point","coordinates":[41.400241,54.942648]}},{"type":"Feature","properties":{"id":"30","name":"Татарская лавка, XIX век","address":"улица Советская, 57","category":"Регионального значения","group":"regional","source":"Приказ № 2969, прил. 2 + ЕГРОКН","method":"ЕГРОКН: координаты реестра","accuracy":"точно (реестр / здание по адресу)","in_settlement":true,"in_core":false},"geometry":{"type":"Point","coordinates":[41.400135,54.942593]}},{"type":"Feature","properties":{"id":"31","name":"Татарская лавка, XIX век","address":"улица Советская, 61","category":"Регионального значения","group":"regional","source":"Приказ № 2969, прил. 2 + ЕГРОКН","method":"линейная модель нумерации улицы","accuracy":"ориентировочно (по оси улицы)","in_settlement":true,"in_core":false},"geometry":{"type":"Point","coordinates":[41.401011,54.942545]}},{"type":"Feature","properties":{"id":"32","name":"Татарская лавка, XIX век","address":"улица Советская, 82","category":"Регионального значения","group":"regional","source":"Приказ № 2969, прил. 2 + ЕГРОКН","method":"интерполяция между д. 78 и 84","accuracy":"приблизительно (соседние дома)","in_settlement":true,"in_core":false},"geometry":{"type":"Point","coordinates":[41.404316,54.943684]}},{"type":"Feature","properties":{"id":"33","name":"Дом Алянчикова, 1844 год","address":"площадь Соборная, 7/8","category":"Регионального значения","group":"regional","source":"Приказ № 2969, прил. 2 + ЕГРОКН","method":"ЕГРОКН: координаты реестра","accuracy":"точно (реестр / здание по адресу)","in_settlement":true,"in_core":true},"geometry":{"type":"Point","coordinates":[41.391296,54.935508]}},{"type":"Feature","properties":{"id":"34","name":"Дом Гинц, 1824-1826 годы","address":"площадь Соборная, 14","category":"Регионального значения","group":"regional","source":"Приказ № 2969, прил. 2 + ЕГРОКН","method":"ЕГРОКН: координаты реестра","accuracy":"точно (реестр / здание по адресу)","in_settlement":true,"in_core":true},"geometry":{"type":"Point","coordinates":[41.389446,54.935782]}},{"type":"Feature","properties":{"id":"35","name":"Дом Скорнякова (Львова), XVIII век","address":"площадь Соборная, 15","category":"Регионального значения","group":"regional","source":"Приказ № 2969, прил. 2 + ЕГРОКН","method":"ЕГРОКН: координаты реестра","accuracy":"точно (реестр / здание по адресу)","in_settlement":true,"in_core":true},"geometry":{"type":"Point","coordinates":[41.389374,54.937706]}},{"type":"Feature","properties":{"id":"36","name":"Вознесенский собор, 1854 год","address":"площадь Соборная, 19","category":"Регионального значения","group":"regional","source":"Приказ № 2969, прил. 2 + ЕГРОКН","method":"ЕГРОКН: координаты реестра","accuracy":"точно (реестр / здание по адресу)","in_settlement":true,"in_core":true},"geometry":{"type":"Point","coordinates":[41.390865,54.937018]}},{"type":"Feature","properties":{"id":"37","name":"Дом Ергакова, XIX век","address":"улица Академика Уткина, 12","category":"Регионального значения","group":"regional","source":"Приказ № 2969, прил. 2 + ЕГРОКН","method":"ЕГРОКН: координаты реестра","accuracy":"точно (реестр / здание по адресу)","in_settlement":true,"in_core":false},"geometry":{"type":"Point","coordinates":[41.388359,54.941393]}},{"type":"Feature","properties":{"id":"38","name":"Духовное училище, 1836 год","address":"переулок Школьный, 2","category":"Регионального значения","group":"regional","source":"Приказ № 2969, прил. 2 + ЕГРОКН","method":"ЕГРОКН: координаты реестра","accuracy":"точно (реестр / здание по адресу)","in_settlement":true,"in_core":true},"geometry":{"type":"Point","coordinates":[41.392248,54.936672]}},{"type":"Feature","properties":{"id":"39","name":"Женская гимназия, XIX век","address":"переулок Школьный, 1","category":"Регионального значения","group":"regional","source":"Приказ № 2969, прил. 2 + ЕГРОКН","method":"ЕГРОКН: координаты реестра","accuracy":"точно (реестр / здание по адресу)","in_settlement":true,"in_core":true},"geometry":{"type":"Point","coordinates":[41.392248,54.936672]}},{"type":"Feature","properties":{"id":"40","name":"Здание бывшей художественной студии (Дом Оленина), 1918-1924","address":"улица Большакова, 11","category":"Местного (муниципального) значения","group":"local","source":"Приказ № 2969, прил. 2 + ЕГРОКН","method":"линейная модель нумерации улицы","accuracy":"ориентировочно (по оси улицы)","in_settlement":true,"in_core":false},"geometry":{"type":"Point","coordinates":[41.397310,54.935586]}},{"type":"Feature","properties":{"id":"41","name":"Дом Кострова, 2-я половина XIX века","address":"улица Большакова, 33","category":"Местного (муниципального) значения","group":"local","source":"Приказ № 2969, прил. 2 + ЕГРОКН","method":"OSM: здание по адресу","accuracy":"точно (реестр / здание по адресу)","in_settlement":true,"in_core":false},"geometry":{"type":"Point","coordinates":[41.399948,54.934212]}},{"type":"Feature","properties":{"id":"42","name":"Татарская лавка, XIX век","address":"переулок Воровского, 3","category":"Местного (муниципального) значения","group":"local","source":"Приказ № 2969, прил. 2 + ЕГРОКН","method":"OSM: здание по адресу (тип улицы в OSM другой)","accuracy":"точно (реестр / здание по адресу)","in_settlement":true,"in_core":false},"geometry":{"type":"Point","coordinates":[41.397880,54.929955]}},{"type":"Feature","properties":{"id":"43","name":"Дом Анурина, начало XIX века","address":"улица Воровского, 4","category":"Местного (муниципального) значения","group":"local","source":"Приказ № 2969, прил. 2 + ЕГРОКН","method":"OSM: здание по адресу","accuracy":"точно (реестр / здание по адресу)","in_settlement":true,"in_core":true},"geometry":{"type":"Point","coordinates":[41.391365,54.934973]}},{"type":"Feature","properties":{"id":"44","name":"Дом Резвякова, середина XIX века","address":"улица Губарева, 7","category":"Ценный градоформирующий объект","group":"value","source":"Приказ № 2969, прил. 2","method":"OSM: здание по адресу (тип улицы в OSM другой)","accuracy":"точно (реестр / здание по адресу)","in_settlement":true,"in_core":false},"geometry":{"type":"Point","coordinates":[41.399566,54.931228]}},{"type":"Feature","properties":{"id":"46","name":"Татарская лавка, XIX век","address":"улица Карла Маркса, 18","category":"Ценный градоформирующий объект","group":"value","source":"Приказ № 2969, прил. 2","method":"OSM: здание по адресу","accuracy":"точно (реестр / здание по адресу)","in_settlement":true,"in_core":false},"geometry":{"type":"Point","coordinates":[41.390295,54.942126]}},{"type":"Feature","properties":{"id":"47","name":"Дом, в котором жил Закир-Хади, начало XX века","address":"улица Ленина, 34","category":"Ценный градоформирующий объект","group":"value","source":"Приказ № 2969, прил. 2","method":"OSM: здание по адресу","accuracy":"точно (реестр / здание по адресу)","in_settlement":true,"in_core":false},"geometry":{"type":"Point","coordinates":[41.406662,54.935334]}},{"type":"Feature","properties":{"id":"48","name":"Жилой дом, конец XIX века","address":"улица Карла Либкнехта, 6","category":"Местного (муниципального) значения","group":"local","source":"Приказ № 2969, прил. 2 + ЕГРОКН","method":"OSM: здание по адресу","accuracy":"точно (реестр / здание по адресу)","in_settlement":true,"in_core":false},"geometry":{"type":"Point","coordinates":[41.394781,54.940989]}},{"type":"Feature","properties":{"id":"49","name":"Здание бывшей частной мужской прогимназии Мансуровой, начало XX века","address":"улица Московская, 1","category":"Местного (муниципального) значения","group":"local","source":"Приказ № 2969, прил. 2 + ЕГРОКН","method":"OSM: здание по адресу","accuracy":"точно (реестр / здание по адресу)","in_settlement":true,"in_core":false},"geometry":{"type":"Point","coordinates":[41.378064,54.941709]}},{"type":"Feature","properties":{"id":"50","name":"Дом Шемякина, 2-я половина XIX века","address":"улица Набережная, 31","category":"Местного (муниципального) значения","group":"local","source":"Приказ № 2969, прил. 2 + ЕГРОКН","method":"OSM: здание по адресу","accuracy":"точно (реестр / здание по адресу)","in_settlement":true,"in_core":false},"geometry":{"type":"Point","coordinates":[41.379723,54.939139]}},{"type":"Feature","properties":{"id":"51","name":"Татарская лавка, XIX век","address":"улица Нариманова, 14а","category":"Местного (муниципального) значения","group":"local","source":"Приказ № 2969, прил. 2 + ЕГРОКН","method":"линейная модель нумерации улицы","accuracy":"ориентировочно (по оси улицы)","in_settlement":true,"in_core":false},"geometry":{"type":"Point","coordinates":[41.407643,54.930841]}},{"type":"Feature","properties":{"id":"52","name":"Татарская лавка, XIX век","address":"улица Нариманова, 26","category":"Местного (муниципального) значения","group":"local","source":"Приказ № 2969, прил. 2 + ЕГРОКН","method":"OSM: здание по адресу","accuracy":"точно (реестр / здание по адресу)","in_settlement":true,"in_core":false},"geometry":{"type":"Point","coordinates":[41.409024,54.932755]}},{"type":"Feature","properties":{"id":"53","name":"Дом Умнова, XIX век","address":"улица Набережная, 105","category":"Местного (муниципального) значения","group":"local","source":"Приказ № 2969, прил. 2 + ЕГРОКН","method":"OSM: здание по адресу","accuracy":"точно (реестр / здание по адресу)","in_settlement":true,"in_core":false},"geometry":{"type":"Point","coordinates":[41.404627,54.921551]}},{"type":"Feature","properties":{"id":"56","name":"Дом Азовцева, 1824-1826 годы","address":"улица Советская, 14","category":"Местного (муниципального) значения","group":"local","source":"Приказ № 2969, прил. 2 + ЕГРОКН","method":"OSM: здание по адресу","accuracy":"точно (реестр / здание по адресу)","in_settlement":true,"in_core":true},"geometry":{"type":"Point","coordinates":[41.394329,54.938524]}},{"type":"Feature","properties":{"id":"57","name":"Татарская лавка, XIX век","address":"улица Советская, 31","category":"Ценный градоформирующий объект","group":"value","source":"Приказ № 2969, прил. 2","method":"интерполяция между д. 27 и 33","accuracy":"приблизительно (соседние дома)","in_settlement":true,"in_core":false},"geometry":{"type":"Point","coordinates":[41.398674,54.941445]}},{"type":"Feature","properties":{"id":"58","name":"Татарская лавка, XIX век","address":"улица Советская, 43","category":"Местного (муниципального) значения","group":"local","source":"Приказ № 2969, прил. 2 + ЕГРОКН","method":"OSM: здание по адресу","accuracy":"точно (реестр / здание по адресу)","in_settlement":true,"in_core":false},"geometry":{"type":"Point","coordinates":[41.399375,54.942271]}},{"type":"Feature","properties":{"id":"59","name":"Дом П.А. Оленина-Волгаря, начало XX века","address":"улица Советская, 55а","category":"Ценный градоформирующий объект","group":"value","source":"Приказ № 2969, прил. 2","method":"соседний дом 51","accuracy":"приблизительно (соседние дома)","in_settlement":true,"in_core":false},"geometry":{"type":"Point","coordinates":[41.400623,54.942699]}},{"type":"Feature","properties":{"id":"60","name":"Дом жилой с лавкой, конец XIX – начало XX веков","address":"улица Академика Уткина, 1","category":"Ценный градоформирующий объект","group":"value","source":"Приказ № 2969, прил. 2","method":"соседний дом 5","accuracy":"приблизительно (соседние дома)","in_settlement":true,"in_core":true},"geometry":{"type":"Point","coordinates":[41.391171,54.938898]}},{"type":"Feature","properties":{"id":"61","name":"Дом жилой с лавкой, конец XIX – начало XX веков","address":"улица Академика Уткина, 2","category":"Ценный градоформирующий объект","group":"value","source":"Приказ № 2969, прил. 2","method":"соседний дом 4","accuracy":"приблизительно (соседние дома)","in_settlement":true,"in_core":true},"geometry":{"type":"Point","coordinates":[41.392264,54.938978]}},{"type":"Feature","properties":{"id":"62","name":"Усадьба Ергакова. Флигель, конец XIX – начало XX веков","address":"улица Академика Уткина, 12","category":"Регионального значения","group":"regional","source":"Приказ № 2969, прил. 2 + ЕГРОКН","method":"ЕГРОКН: координаты реестра","accuracy":"точно (реестр / здание по адресу)","in_settlement":true,"in_core":false},"geometry":{"type":"Point","coordinates":[41.388359,54.941393]}},{"type":"Feature","properties":{"id":"63","name":"Дом жилой, 2-я половина XIX века","address":"улица Академика Уткина, 14","category":"Ценный градоформирующий объект","group":"value","source":"Приказ № 2969, прил. 2","method":"OSM: здание по адресу","accuracy":"точно (реестр / здание по адресу)","in_settlement":true,"in_core":true},"geometry":{"type":"Point","coordinates":[41.390385,54.940122]}},{"type":"Feature","properties":{"id":"64","name":"Дом жилой, начало XX века","address":"улица Академика Уткина, 18","category":"Ценный градоформирующий объект","group":"value","source":"Приказ № 2969, прил. 2","method":"OSM: здание по адресу","accuracy":"точно (реестр / здание по адресу)","in_settlement":true,"in_core":false},"geometry":{"type":"Point","coordinates":[41.388678,54.941194]}},{"type":"Feature","properties":{"id":"65","name":"Здание военного госпиталя (1812), начало XIX века","address":"улица Академика Уткина, 21","category":"Ценный градоформирующий объект","group":"value","source":"Приказ № 2969, прил. 2","method":"OSM: здание по адресу","accuracy":"точно (реестр / здание по адресу)","in_settlement":true,"in_core":false},"geometry":{"type":"Point","coordinates":[41.386133,54.942327]}},{"type":"Feature","properties":{"id":"66","name":"Дом жилой, конец XIX – начало XX веков","address":"улица Большакова, 3","category":"Ценный градоформирующий объект","group":"value","source":"Приказ № 2969, прил. 2","method":"линейная модель нумерации улицы","accuracy":"ориентировочно (по оси улицы)","in_settlement":true,"in_core":false},"geometry":{"type":"Point","coordinates":[41.397310,54.935586]}},{"type":"Feature","properties":{"id":"67","name":"Дом жилой, конец XIX века","address":"улица Большакова, 4","category":"Ценный градоформирующий объект","group":"value","source":"Приказ № 2969, прил. 2","method":"OSM: здание по адресу","accuracy":"точно (реестр / здание по адресу)","in_settlement":true,"in_core":true},"geometry":{"type":"Point","coordinates":[41.393343,54.937737]}},{"type":"Feature","properties":{"id":"68","name":"Дом жилой, 1-я половина XX века","address":"улица Большакова, 4а","category":"Ценный градоформирующий объект","group":"value","source":"Приказ № 2969, прил. 2","method":"линейная модель нумерации улицы","accuracy":"ориентировочно (по оси улицы)","in_settlement":true,"in_core":false},"geometry":{"type":"Point","coordinates":[41.397310,54.935586]}},{"type":"Feature","properties":{"id":"69","name":"Дом жилой, конец XIX века","address":"улица Большакова, 5","category":"Ценный градоформирующий объект","group":"value","source":"Приказ № 2969, прил. 2","method":"линейная модель нумерации улицы","accuracy":"ориентировочно (по оси улицы)","in_settlement":true,"in_core":false},"geometry":{"type":"Point","coordinates":[41.397310,54.935586]}},{"type":"Feature","properties":{"id":"70","name":"Дом жилой, начало XX века","address":"улица Большакова, 9","category":"Ценный градоформирующий объект","group":"value","source":"Приказ № 2969, прил. 2","method":"линейная модель нумерации улицы","accuracy":"ориентировочно (по оси улицы)","in_settlement":true,"in_core":false},"geometry":{"type":"Point","coordinates":[41.397310,54.935586]}},{"type":"Feature","properties":{"id":"71","name":"Городская усадьба, конец XIX – начало XX веков","address":"улица Большакова, 11","category":"Местного (муниципального) значения","group":"local","source":"Приказ № 2969, прил. 2 + ЕГРОКН","method":"линейная модель нумерации улицы","accuracy":"ориентировочно (по оси улицы)","in_settlement":true,"in_core":false},"geometry":{"type":"Point","coordinates":[41.397310,54.935586]}},{"type":"Feature","properties":{"id":"72","name":"Городская усадьба (комплекс), конец XIX – начало XX веков","address":"улица Большакова, 28","category":"Ценный градоформирующий объект","group":"value","source":"Приказ № 2969, прил. 2","method":"Nominatim","accuracy":"приблизительно (соседние дома)","in_settlement":true,"in_core":false},"geometry":{"type":"Point","coordinates":[41.402555,54.932082]}},{"type":"Feature","properties":{"id":"73","name":"Дом жилой, начало XX века","address":"улица Большакова, 30","category":"Ценный градоформирующий объект","group":"value","source":"Приказ № 2969, прил. 2","method":"линейная модель нумерации улицы","accuracy":"ориентировочно (по оси улицы)","in_settlement":true,"in_core":false},"geometry":{"type":"Point","coordinates":[41.400395,54.933189]}},{"type":"Feature","properties":{"id":"74","name":"Городская усадьба. Дом жилой, конец XIX – начало XX веков","address":"улица Большакова, 31","category":"Ценный градоформирующий объект","group":"value","source":"Приказ № 2969, прил. 2","method":"интерполяция между д. 25 и 33","accuracy":"приблизительно (соседние дома)","in_settlement":true,"in_core":false},"geometry":{"type":"Point","coordinates":[41.399634,54.934400]}},{"type":"Feature","properties":{"id":"75","name":"Городская усадьба. Дом жилой, начало XX века","address":"улица Большакова, 31а","category":"Ценный градоформирующий объект","group":"value","source":"Приказ № 2969, прил. 2","method":"интерполяция между д. 25 и 33","accuracy":"приблизительно (соседние дома)","in_settlement":true,"in_core":false},"geometry":{"type":"Point","coordinates":[41.399634,54.934400]}},{"type":"Feature","properties":{"id":"76","name":"Дом Кострова. Ворота, конец XIX века","address":"улица Большакова, 33","category":"Местного (муниципального) значения","group":"local","source":"Приказ № 2969, прил. 2 + ЕГРОКН","method":"OSM: здание по адресу","accuracy":"точно (реестр / здание по адресу)","in_settlement":true,"in_core":false},"geometry":{"type":"Point","coordinates":[41.399948,54.934212]}},{"type":"Feature","properties":{"id":"77","name":"Дом жилой, начало XX века","address":"улица Большакова, 38","category":"Ценный градоформирующий объект","group":"value","source":"Приказ № 2969, прил. 2","method":"линейная модель нумерации улицы","accuracy":"ориентировочно (по оси улицы)","in_settlement":true,"in_core":false},"geometry":{"type":"Point","coordinates":[41.402026,54.932189]}},{"type":"Feature","properties":{"id":"78","name":"Городская усадьба: главный дом, конец XIX – начало XX веков","address":"улица Большакова, 40","category":"Ценный градоформирующий объект","group":"value","source":"Приказ № 2969, прил. 2","method":"линейная модель нумерации улицы","accuracy":"ориентировочно (по оси улицы)","in_settlement":true,"in_core":false},"geometry":{"type":"Point","coordinates":[41.402429,54.931937]}},{"type":"Feature","properties":{"id":"79","name":"Городская усадьба: лавка, ворота, конец XIX – начало XX веков","address":"улица Большакова, 40","category":"Ценный градоформирующий объект","group":"value","source":"Приказ № 2969, прил. 2","method":"линейная модель нумерации улицы","accuracy":"ориентировочно (по оси улицы)","in_settlement":true,"in_core":false},"geometry":{"type":"Point","coordinates":[41.402429,54.931937]}},{"type":"Feature","properties":{"id":"80","name":"Городская усадьба: главный дом, ворота, конец XIX – начало XX веков","address":"улица Большакова, 45","category":"Ценный градоформирующий объект","group":"value","source":"Приказ № 2969, прил. 2","method":"линейная модель нумерации улицы","accuracy":"ориентировочно (по оси улицы)","in_settlement":true,"in_core":false},"geometry":{"type":"Point","coordinates":[41.404116,54.931665]}},{"type":"Feature","properties":{"id":"81","name":"Городская усадьба, конец XIX – начало XX веков","address":"улица Губарева, 11","category":"Ценный градоформирующий объект","group":"value","source":"Приказ № 2969, прил. 2","method":"OSM: здание по адресу (тип улицы в OSM другой)","accuracy":"точно (реестр / здание по адресу)","in_settlement":true,"in_core":false},"geometry":{"type":"Point","coordinates":[41.400251,54.931595]}},{"type":"Feature","properties":{"id":"83","name":"Дом жилой, начало XX века","address":"улица Губарева, 34","category":"Ценный градоформирующий объект","group":"value","source":"Приказ № 2969, прил. 2","method":"соседний дом 36","accuracy":"приблизительно (соседние дома)","in_settlement":true,"in_core":false},"geometry":{"type":"Point","coordinates":[41.402060,54.930324]}},{"type":"Feature","properties":{"id":"84","name":"Дом жилой, начало XX века","address":"улица Губарева, 38","category":"Ценный градоформирующий объект","group":"value","source":"Приказ № 2969, прил. 2","method":"OSM: здание по адресу","accuracy":"точно (реестр / здание по адресу)","in_settlement":true,"in_core":false},"geometry":{"type":"Point","coordinates":[41.402424,54.930081]}},{"type":"Feature","properties":{"id":"85","name":"Дом жилой, начало XX века","address":"улица Воеводина, 7","category":"Ценный градоформирующий объект","group":"value","source":"Приказ № 2969, прил. 2","method":"интерполяция между д. 5 и 17","accuracy":"приблизительно (соседние дома)","in_settlement":true,"in_core":false},"geometry":{"type":"Point","coordinates":[41.402366,54.933811]}},{"type":"Feature","properties":{"id":"86","name":"Дом жилой, начало XX века","address":"улица Воеводина, 16","category":"Ценный градоформирующий объект","group":"value","source":"Приказ № 2969, прил. 2","method":"интерполяция между д. 14 и 22","accuracy":"приблизительно (соседние дома)","in_settlement":true,"in_core":false},"geometry":{"type":"Point","coordinates":[41.405616,54.934717]}},{"type":"Feature","properties":{"id":"87","name":"Дом жилой, конец XIX – начало XX веков","address":"1-й переулок Воровского, 3","category":"Местного (муниципального) значения","group":"local","source":"Приказ № 2969, прил. 2 + ЕГРОКН","method":"OSM: здание по адресу (тип улицы в OSM другой)","accuracy":"точно (реестр / здание по адресу)","in_settlement":true,"in_core":false},"geometry":{"type":"Point","coordinates":[41.397880,54.929955]}},{"type":"Feature","properties":{"id":"88","name":"Дом жилой, конец XIX – начало XX веков","address":"улица Воровского, 2","category":"Ценный градоформирующий объект","group":"value","source":"Приказ № 2969, прил. 2","method":"соседний дом 4","accuracy":"приблизительно (соседние дома)","in_settlement":true,"in_core":true},"geometry":{"type":"Point","coordinates":[41.391365,54.934973]}},{"type":"Feature","properties":{"id":"89","name":"Дом жилой, начало XX века","address":"улица Воровского, 8","category":"Ценный градоформирующий объект","group":"value","source":"Приказ № 2969, прил. 2","method":"соседний дом 4","accuracy":"приблизительно (соседние дома)","in_settlement":true,"in_core":true},"geometry":{"type":"Point","coordinates":[41.391365,54.934973]}},{"type":"Feature","properties":{"id":"90","name":"Дом жилой, конец XIX – начало XX веков","address":"улица Воровского, 8а","category":"Ценный градоформирующий объект","group":"value","source":"Приказ № 2969, прил. 2","method":"соседний дом 4","accuracy":"приблизительно (соседние дома)","in_settlement":true,"in_core":true},"geometry":{"type":"Point","coordinates":[41.391365,54.934973]}},{"type":"Feature","properties":{"id":"91","name":"Дом жилой, конец XIX – начало XX веков","address":"улица Дзержинского, 4","category":"Ценный градоформирующий объект","group":"value","source":"Приказ № 2969, прил. 2","method":"соседний дом 8","accuracy":"приблизительно (соседние дома)","in_settlement":true,"in_core":false},"geometry":{"type":"Point","coordinates":[41.383440,54.939721]}},{"type":"Feature","properties":{"id":"92","name":"Дом жилой, конец XIX – начало XX веков","address":"улица Дзержинского, 32","category":"Ценный градоформирующий объект","group":"value","source":"Приказ № 2969, прил. 2","method":"интерполяция между д. 24 и 34","accuracy":"приблизительно (соседние дома)","in_settlement":true,"in_core":false},"geometry":{"type":"Point","coordinates":[41.390346,54.943279]}},{"type":"Feature","properties":{"id":"93","name":"Дом жилой, начало XX века","address":"улица Дзержинского, 32а","category":"Ценный градоформирующий объект","group":"value","source":"Приказ № 2969, прил. 2","method":"интерполяция между д. 24 и 34","accuracy":"приблизительно (соседние дома)","in_settlement":true,"in_core":false},"geometry":{"type":"Point","coordinates":[41.390346,54.943279]}},{"type":"Feature","properties":{"id":"94","name":"Дом жилой, конец XIX – начало XX веков","address":"улица Илюшкина, 1","category":"Ценный градоформирующий объект","group":"value","source":"Приказ № 2969, прил. 2","method":"линейная модель нумерации улицы","accuracy":"ориентировочно (по оси улицы)","in_settlement":true,"in_core":false},"geometry":{"type":"Point","coordinates":[41.398884,54.935688]}},{"type":"Feature","properties":{"id":"95","name":"Дом жилой, конец XIX – начало XX веков","address":"улица Илюшкина, 1а","category":"Ценный градоформирующий объект","group":"value","source":"Приказ № 2969, прил. 2","method":"линейная модель нумерации улицы","accuracy":"ориентировочно (по оси улицы)","in_settlement":true,"in_core":false},"geometry":{"type":"Point","coordinates":[41.398884,54.935688]}},{"type":"Feature","properties":{"id":"96","name":"Дом жилой, начало XX века","address":"улица Илюшкина, 3","category":"Ценный градоформирующий объект","group":"value","source":"Приказ № 2969, прил. 2","method":"линейная модель нумерации улицы","accuracy":"ориентировочно (по оси улицы)","in_settlement":true,"in_core":false},"geometry":{"type":"Point","coordinates":[41.398884,54.935688]}},{"type":"Feature","properties":{"id":"97","name":"Дом жилой, начало XX века","address":"улица Илюшкина, 6","category":"Регионального значения","group":"regional","source":"Приказ № 2969, прил. 2 + ЕГРОКН","method":"ЕГРОКН: координаты реестра","accuracy":"точно (реестр / здание по адресу)","in_settlement":true,"in_core":false},"geometry":{"type":"Point","coordinates":[41.400522,54.935452]}},{"type":"Feature","properties":{"id":"98","name":"Дом жилой, начало XX века","address":"улица Илюшкина, 51а","category":"Ценный градоформирующий объект","group":"value","source":"Приказ № 2969, прил. 2","method":"OSM: здание по адресу","accuracy":"точно (реестр / здание по адресу)","in_settlement":true,"in_core":false},"geometry":{"type":"Point","coordinates":[41.408018,54.931030]}},{"type":"Feature","properties":{"id":"99","name":"Дом жилой с лавкой, начало XX века","address":"улица Карла Либкнехта, 3","category":"Ценный градоформирующий объект","group":"value","source":"Приказ № 2969, прил. 2","method":"интерполяция между д. 1 и 5","accuracy":"приблизительно (соседние дома)","in_settlement":true,"in_core":true},"geometry":{"type":"Point","coordinates":[41.395100,54.940284]}},{"type":"Feature","properties":{"id":"100","name":"Надворная постройка, начало XX века","address":"улица Карла Либкнехта, 3","category":"Ценный градоформирующий объект","group":"value","source":"Приказ № 2969, прил. 2","method":"интерполяция между д. 1 и 5","accuracy":"приблизительно (соседние дома)","in_settlement":true,"in_core":true},"geometry":{"type":"Point","coordinates":[41.395100,54.940284]}},{"type":"Feature","properties":{"id":"101","name":"Дом жилой, конец XIX – начало XX веков","address":"улица Карла Либкнехта, 4","category":"Ценный градоформирующий объект","group":"value","source":"Приказ № 2969, прил. 2","method":"OSM: здание по адресу","accuracy":"точно (реестр / здание по адресу)","in_settlement":true,"in_core":false},"geometry":{"type":"Point","coordinates":[41.395110,54.940761]}},{"type":"Feature","properties":{"id":"102","name":"Дом Кауфманов, начало XX века","address":"улица Карла Либкнехта, 11","category":"Местного (муниципального) значения","group":"local","source":"Приказ № 2969, прил. 2 + ЕГРОКН","method":"OSM: здание по адресу","accuracy":"точно (реестр / здание по адресу)","in_settlement":true,"in_core":true},"geometry":{"type":"Point","coordinates":[41.393922,54.941016]}},{"type":"Feature","properties":{"id":"103","name":"Дом жилой, начало XX века","address":"улица Карла Либкнехта, 12","category":"Ценный градоформирующий объект","group":"value","source":"Приказ № 2969, прил. 2","method":"OSM: здание по адресу","accuracy":"точно (реестр / здание по адресу)","in_settlement":true,"in_core":false},"geometry":{"type":"Point","coordinates":[41.393688,54.941669]}},{"type":"Feature","properties":{"id":"104","name":"Дом жилой, начало XX века","address":"улица Карла Либкнехта, 14","category":"Ценный градоформирующий объект","group":"value","source":"Приказ № 2969, прил. 2","method":"интерполяция между д. 12 и 16","accuracy":"приблизительно (соседние дома)","in_settlement":true,"in_core":false},"geometry":{"type":"Point","coordinates":[41.393326,54.941875]}},{"type":"Feature","properties":{"id":"105","name":"Дом жилой, начало XX века","address":"улица Карла Либкнехта, 15","category":"Ценный градоформирующий объект","group":"value","source":"Приказ № 2969, прил. 2","method":"интерполяция между д. 11 и 17","accuracy":"приблизительно (соседние дома)","in_settlement":true,"in_core":false},"geometry":{"type":"Point","coordinates":[41.392847,54.941700]}},{"type":"Feature","properties":{"id":"106","name":"Дом жилой, конец XIX – начало XX веков","address":"улица Карла Маркса, 3","category":"Ценный градоформирующий объект","group":"value","source":"Приказ № 2969, прил. 2","method":"соседний дом 7","accuracy":"приблизительно (соседние дома)","in_settlement":true,"in_core":true},"geometry":{"type":"Point","coordinates":[41.392751,54.940055]}},{"type":"Feature","properties":{"id":"107","name":"Дом жилой, конец XIX – начало XX веков","address":"улица Карла Маркса, 3а","category":"Ценный градоформирующий объект","group":"value","source":"Приказ № 2969, прил. 2","method":"соседний дом 7","accuracy":"приблизительно (соседние дома)","in_settlement":true,"in_core":true},"geometry":{"type":"Point","coordinates":[41.392751,54.940055]}},{"type":"Feature","properties":{"id":"108","name":"Дом жилой, конец XIX – начало XX веков","address":"улица Карла Маркса, 8","category":"Ценный градоформирующий объект","group":"value","source":"Приказ № 2969, прил. 2","method":"OSM: здание по адресу","accuracy":"точно (реестр / здание по адресу)","in_settlement":true,"in_core":true},"geometry":{"type":"Point","coordinates":[41.393328,54.940221]}},{"type":"Feature","properties":{"id":"109","name":"Дом жилой, начало XX века","address":"улица Карла Маркса, 11","category":"Ценный градоформирующий объект","group":"value","source":"Приказ № 2969, прил. 2","method":"OSM: здание по адресу","accuracy":"точно (реестр / здание по адресу)","in_settlement":true,"in_core":true},"geometry":{"type":"Point","coordinates":[41.392062,54.940380]}},{"type":"Feature","properties":{"id":"110","name":"Дом жилой, начало XX века","address":"улица Карла Маркса, 12","category":"Ценный градоформирующий объект","group":"value","source":"Приказ № 2969, прил. 2","method":"OSM: здание по адресу","accuracy":"точно (реестр / здание по адресу)","in_settlement":true,"in_core":false},"geometry":{"type":"Point","coordinates":[41.391142,54.941596]}},{"type":"Feature","properties":{"id":"111","name":"Городская усадьба: главный дом, ворота, конец XIX века","address":"улица Карла Маркса, 29","category":"Ценный градоформирующий объект","group":"value","source":"Приказ № 2969, прил. 2","method":"интерполяция между д. 23 и 31","accuracy":"приблизительно (соседние дома)","in_settlement":true,"in_core":false},"geometry":{"type":"Point","coordinates":[41.389227,54.942115]}},{"type":"Feature","properties":{"id":"112","name":"Дом жилой, начало XX века","address":"улица Комарова, 14","category":"Ценный градоформирующий объект","group":"value","source":"Приказ № 2969, прил. 2","method":"OSM: здание по адресу","accuracy":"точно (реестр / здание по адресу)","in_settlement":true,"in_core":false},"geometry":{"type":"Point","coordinates":[41.394956,54.942302]}},{"type":"Feature","properties":{"id":"113","name":"Дом жилой, начало XX века","address":"улица Комарова, 14а","category":"Ценный градоформирующий объект","group":"value","source":"Приказ № 2969, прил. 2","method":"OSM: здание по адресу","accuracy":"точно (реестр / здание по адресу)","in_settlement":true,"in_core":false},"geometry":{"type":"Point","coordinates":[41.394797,54.942222]}},{"type":"Feature","properties":{"id":"114","name":"Дом жилой, начало XX века","address":"улица Комарова, 23","category":"Ценный градоформирующий объект","group":"value","source":"Приказ № 2969, прил. 2","method":"линейная модель нумерации улицы","accuracy":"ориентировочно (по оси улицы)","in_settlement":true,"in_core":false},"geometry":{"type":"Point","coordinates":[41.395899,54.943433]}},{"type":"Feature","properties":{"id":"115","name":"Дом жилой, начало XX века","address":"улица Комарова, 24","category":"Ценный градоформирующий объект","group":"value","source":"Приказ № 2969, прил. 2","method":"интерполяция между д. 22 и 26","accuracy":"приблизительно (соседние дома)","in_settlement":true,"in_core":false},"geometry":{"type":"Point","coordinates":[41.396841,54.943236]}},{"type":"Feature","properties":{"id":"116","name":"Татарская лавка, начало XX века","address":"улица Комарова, 27","category":"Ценный градоформирующий объект","group":"value","source":"Приказ № 2969, прил. 2","method":"линейная модель нумерации улицы","accuracy":"ориентировочно (по оси улицы)","in_settlement":true,"in_core":false},"geometry":{"type":"Point","coordinates":[41.396556,54.943789]}},{"type":"Feature","properties":{"id":"117","name":"Татарская лавка, начало XX века","address":"улица Комарова, 29","category":"Ценный градоформирующий объект","group":"value","source":"Приказ № 2969, прил. 2","method":"соседний дом 33","accuracy":"приблизительно (соседние дома)","in_settlement":true,"in_core":false},"geometry":{"type":"Point","coordinates":[41.397222,54.944110]}},{"type":"Feature","properties":{"id":"118","name":"Дом жилой, начало XX века","address":"улица Комарова, 32а","category":"Ценный градоформирующий объект","group":"value","source":"Приказ № 2969, прил. 2","method":"соседний дом 30","accuracy":"приблизительно (соседние дома)","in_settlement":true,"in_core":false},"geometry":{"type":"Point","coordinates":[41.397393,54.943611]}},{"type":"Feature","properties":{"id":"121","name":"Дом жилой, начало XX века","address":"улица Ленина, 16","category":"Ценный градоформирующий объект","group":"value","source":"Приказ № 2969, прил. 2","method":"соседний дом 14","accuracy":"приблизительно (соседние дома)","in_settlement":true,"in_core":false},"geometry":{"type":"Point","coordinates":[41.401072,54.938117]}},{"type":"Feature","properties":{"id":"122","name":"Дом жилой, начало XX века","address":"улица Московская, 2а","category":"Ценный градоформирующий объект","group":"value","source":"Приказ № 2969, прил. 2","method":"OSM: здание по адресу","accuracy":"точно (реестр / здание по адресу)","in_settlement":true,"in_core":false},"geometry":{"type":"Point","coordinates":[41.378635,54.941878]}},{"type":"Feature","properties":{"id":"123","name":"Усадьба Барковых: флигель, ворота с оградой","address":"улица Набережная, 21","category":"Федерального значения","group":"federal","source":"Приказ № 2969, прил. 2 + ЕГРОКН","method":"ЕГРОКН: координаты реестра","accuracy":"точно (реестр / здание по адресу)","in_settlement":true,"in_core":false},"geometry":{"type":"Point","coordinates":[41.375504,54.940324]}},{"type":"Feature","properties":{"id":"124","name":"Дом купца Шемякина, начало XIX века","address":"улица Набережная, 32","category":"Ценный градоформирующий объект","group":"value","source":"Приказ № 2969, прил. 2","method":"OSM: здание по адресу","accuracy":"точно (реестр / здание по адресу)","in_settlement":true,"in_core":false},"geometry":{"type":"Point","coordinates":[41.380283,54.939024]}},{"type":"Feature","properties":{"id":"125","name":"Дом Качкова, XIX век","address":"улица Набережная, 35","category":"Ценный градоформирующий объект","group":"value","source":"Приказ № 2969, прил. 2","method":"OSM: здание по адресу","accuracy":"точно (реестр / здание по адресу)","in_settlement":true,"in_core":false},"geometry":{"type":"Point","coordinates":[41.381252,54.938628]}},{"type":"Feature","properties":{"id":"126","name":"Городская усадьба: дом жилой, хозпостройки, начало XIX века","address":"улица Набережная, 36","category":"Ценный градоформирующий объект","group":"value","source":"Приказ № 2969, прил. 2","method":"OSM: здание по адресу","accuracy":"точно (реестр / здание по адресу)","in_settlement":true,"in_core":false},"geometry":{"type":"Point","coordinates":[41.381724,54.938467]}},{"type":"Feature","properties":{"id":"127","name":"Дом жилой, конец XIX – начало XX века","address":"улица Набережная, 36","category":"Ценный градоформирующий объект","group":"value","source":"Приказ № 2969, прил. 2","method":"OSM: здание по адресу","accuracy":"точно (реестр / здание по адресу)","in_settlement":true,"in_core":false},"geometry":{"type":"Point","coordinates":[41.381724,54.938467]}},{"type":"Feature","properties":{"id":"128","name":"Дом жилой, начало XX века (литер А)","address":"улица Набережная, 39","category":"Ценный градоформирующий объект","group":"value","source":"Приказ № 2969, прил. 2","method":"интерполяция между д. 37 и 41","accuracy":"приблизительно (соседние дома)","in_settlement":true,"in_core":false},"geometry":{"type":"Point","coordinates":[41.383025,54.937964]}},{"type":"Feature","properties":{"id":"129","name":"Дом жилой, начало XX века (литер Б)","address":"улица Набережная, 39","category":"Ценный градоформирующий объект","group":"value","source":"Приказ № 2969, прил. 2","method":"интерполяция между д. 37 и 41","accuracy":"приблизительно (соседние дома)","in_settlement":true,"in_core":false},"geometry":{"type":"Point","coordinates":[41.383025,54.937964]}},{"type":"Feature","properties":{"id":"130","name":"Дом жилой, начало XX века","address":"улица Набережная, 40","category":"Ценный градоформирующий объект","group":"value","source":"Приказ № 2969, прил. 2","method":"OSM: здание по адресу","accuracy":"точно (реестр / здание по адресу)","in_settlement":true,"in_core":false},"geometry":{"type":"Point","coordinates":[41.383316,54.937862]}},{"type":"Feature","properties":{"id":"131","name":"Дом жилой, начало XX века","address":"улица Набережная, 41","category":"Ценный градоформирующий объект","group":"value","source":"Приказ № 2969, прил. 2","method":"OSM: здание по адресу","accuracy":"точно (реестр / здание по адресу)","in_settlement":true,"in_core":false},"geometry":{"type":"Point","coordinates":[41.383986,54.937625]}},{"type":"Feature","properties":{"id":"132","name":"Дом жилой, начало XX века","address":"улица Набережная, 45","category":"Ценный градоформирующий объект","group":"value","source":"Приказ № 2969, прил. 2","method":"OSM: здание по адресу","accuracy":"точно (реестр / здание по адресу)","in_settlement":true,"in_core":true},"geometry":{"type":"Point","coordinates":[41.385473,54.937107]}},{"type":"Feature","properties":{"id":"133","name":"Усадьба Кострова: флигели, ворота с оградой, 1837-1844","address":"улица Набережная, 77","category":"Регионального значения","group":"regional","source":"Приказ № 2969, прил. 2 + ЕГРОКН","method":"ЕГРОКН: координаты реестра","accuracy":"точно (реестр / здание по адресу)","in_settlement":true,"in_core":true},"geometry":{"type":"Point","coordinates":[41.392134,54.933022]}},{"type":"Feature","properties":{"id":"134","name":"Дом жилой, начало XX века","address":"улица Нариманова, 16","category":"Ценный градоформирующий объект","group":"value","source":"Приказ № 2969, прил. 2","method":"линейная модель нумерации улицы","accuracy":"ориентировочно (по оси улицы)","in_settlement":true,"in_core":false},"geometry":{"type":"Point","coordinates":[41.408066,54.931017]}},{"type":"Feature","properties":{"id":"135","name":"Здание мечети с минаретом, 1906 год","address":"улица Нариманова, 20","category":"Ценный градоформирующий объект","group":"value","source":"Приказ № 2969, прил. 2","method":"соседний дом 22","accuracy":"приблизительно (соседние дома)","in_settlement":true,"in_core":false},"geometry":{"type":"Point","coordinates":[41.407755,54.932105]}},{"type":"Feature","properties":{"id":"136","name":"Дом жилой, конец XIX – начало XX века","address":"улица Нариманова, 27","category":"Ценный градоформирующий объект","group":"value","source":"Приказ № 2969, прил. 2","method":"OSM: здание по адресу","accuracy":"точно (реестр / здание по адресу)","in_settlement":true,"in_core":false},"geometry":{"type":"Point","coordinates":[41.407213,54.932627]}},{"type":"Feature","properties":{"id":"137","name":"Татарская лавка, начало XX века","address":"улица Октябрьская, 3а","category":"Ценный градоформирующий объект","group":"value","source":"Приказ № 2969, прил. 2","method":"линейная модель нумерации улицы","accuracy":"ориентировочно (по оси улицы)","in_settlement":true,"in_core":false},"geometry":{"type":"Point","coordinates":[41.401963,54.927490]}},{"type":"Feature","properties":{"id":"138","name":"Дом жилой, начало XX века","address":"улица Октябрьская, 15","category":"Ценный градоформирующий объект","group":"value","source":"Приказ № 2969, прил. 2","method":"линейная модель нумерации улицы","accuracy":"ориентировочно (по оси улицы)","in_settlement":true,"in_core":false},"geometry":{"type":"Point","coordinates":[41.408209,54.923409]}},{"type":"Feature","properties":{"id":"139","name":"Дом жилой, начало XX века","address":"улица 50 лет ВЛКСМ, 8","category":"Ценный градоформирующий объект","group":"value","source":"Приказ № 2969, прил. 2","method":"OSM: здание по адресу","accuracy":"точно (реестр / здание по адресу)","in_settlement":true,"in_core":false},"geometry":{"type":"Point","coordinates":[41.397367,54.942163]}},{"type":"Feature","properties":{"id":"140","name":"Татарская лавка, 1912 год","address":"улица 50 лет ВЛКСМ, 20а","category":"Ценный градоформирующий объект","group":"value","source":"Приказ № 2969, прил. 2","method":"интерполяция между д. 18 и 26","accuracy":"приблизительно (соседние дома)","in_settlement":true,"in_core":false},"geometry":{"type":"Point","coordinates":[41.395136,54.943435]}},{"type":"Feature","properties":{"id":"141","name":"Дом жилой, начало XX века","address":"улица 50 лет ВЛКСМ, 22","category":"Ценный градоформирующий объект","group":"value","source":"Приказ № 2969, прил. 2","method":"интерполяция между д. 18 и 26","accuracy":"приблизительно (соседние дома)","in_settlement":false,"in_core":false},"geometry":{"type":"Point","coordinates":[41.394110,54.944029]}},{"type":"Feature","properties":{"id":"142","name":"Дом жилой, начало XX века","address":"улица 50 лет ВЛКСМ, 24","category":"Ценный градоформирующий объект","group":"value","source":"Приказ № 2969, прил. 2","method":"интерполяция между д. 18 и 26","accuracy":"приблизительно (соседние дома)","in_settlement":false,"in_core":false},"geometry":{"type":"Point","coordinates":[41.393084,54.944623]}},{"type":"Feature","properties":{"id":"143","name":"Дом жилой, начало XX века","address":"улица 50 лет ВЛКСМ, 26","category":"Ценный градоформирующий объект","group":"value","source":"Приказ № 2969, прил. 2","method":"интерполяция между д. 18 и 30","accuracy":"приблизительно (соседние дома)","in_settlement":false,"in_core":false},"geometry":{"type":"Point","coordinates":[41.392550,54.944748]}},{"type":"Feature","properties":{"id":"144","name":"Дом жилой, конец XIX – начало XX веков","address":"улица Рязанский спуск, 5","category":"Ценный градоформирующий объект","group":"value","source":"Приказ № 2969, прил. 2","method":"OSM: здание по адресу","accuracy":"точно (реестр / здание по адресу)","in_settlement":true,"in_core":true},"geometry":{"type":"Point","coordinates":[41.386654,54.936608]}},{"type":"Feature","properties":{"id":"145","name":"Дом жилой, конец XIX – начало XX веков","address":"улица Свердлова, 5а","category":"Ценный градоформирующий объект","group":"value","source":"Приказ № 2969, прил. 2","method":"OSM: здание по адресу","accuracy":"точно (реестр / здание по адресу)","in_settlement":true,"in_core":true},"geometry":{"type":"Point","coordinates":[41.387128,54.937589]}},{"type":"Feature","properties":{"id":"146","name":"Комплекс Казанского женского монастыря, XIX век","address":"улица Свердлова, 19","category":"Ценный градоформирующий объект","group":"value","source":"Приказ № 2969, прил. 2","method":"OSM: здание по адресу","accuracy":"точно (реестр / здание по адресу)","in_settlement":true,"in_core":false},"geometry":{"type":"Point","coordinates":[41.383865,54.939561]}},{"type":"Feature","properties":{"id":"147","name":"Комплекс Казанского женского монастыря. Башня ограды","address":"улица Свердлова, 31","category":"Ценный градоформирующий объект","group":"value","source":"Приказ № 2969, прил. 2","method":"OSM: здание по адресу","accuracy":"точно (реестр / здание по адресу)","in_settlement":true,"in_core":false},"geometry":{"type":"Point","coordinates":[41.383009,54.939065]}},{"type":"Feature","properties":{"id":"148","name":"Дом жилой, начало XX века","address":"улица Свердлова, 59","category":"Ценный градоформирующий объект","group":"value","source":"Приказ № 2969, прил. 2","method":"OSM: здание по адресу","accuracy":"точно (реестр / здание по адресу)","in_settlement":true,"in_core":false},"geometry":{"type":"Point","coordinates":[41.378768,54.942865]}},{"type":"Feature","properties":{"id":"149","name":"Дом жилой, начало XX века","address":"площадь Соборная, 4","category":"Ценный градоформирующий объект","group":"value","source":"Приказ № 2969, прил. 2","method":"OSM: здание по адресу","accuracy":"точно (реестр / здание по адресу)","in_settlement":true,"in_core":true},"geometry":{"type":"Point","coordinates":[41.391278,54.937843]}},{"type":"Feature","properties":{"id":"150","name":"Дом жилой с лавками, конец XIX века","address":"площадь Соборная, 10","category":"Ценный градоформирующий объект","group":"value","source":"Приказ № 2969, прил. 2","method":"интерполяция между д. 4 и 14","accuracy":"приблизительно (соседние дома)","in_settlement":true,"in_core":true},"geometry":{"type":"Point","coordinates":[41.389241,54.937135]}},{"type":"Feature","properties":{"id":"151","name":"Дом жилой с лавками, конец XIX века; надворные хозпостройки","address":"площадь Соборная, 10а","category":"Ценный градоформирующий объект","group":"value","source":"Приказ № 2969, прил. 2","method":"интерполяция между д. 4 и 14","accuracy":"приблизительно (соседние дома)","in_settlement":true,"in_core":true},"geometry":{"type":"Point","coordinates":[41.389241,54.937135]}},{"type":"Feature","properties":{"id":"152","name":"Дом жилой с лавками, конец XIX века; надворные хозпостройки","address":"площадь Соборная, 10б","category":"Ценный градоформирующий объект","group":"value","source":"Приказ № 2969, прил. 2","method":"OSM: здание по адресу","accuracy":"точно (реестр / здание по адресу)","in_settlement":true,"in_core":true},"geometry":{"type":"Point","coordinates":[41.389710,54.936043]}},{"type":"Feature","properties":{"id":"153","name":"Усадьба Наставина. Хозпостройка, начало XX века","address":"площадь Соборная, 17а","category":"Ценный градоформирующий объект","group":"value","source":"Приказ № 2969, прил. 2","method":"интерполяция между д. 15 и 19","accuracy":"приблизительно (соседние дома)","in_settlement":true,"in_core":true},"geometry":{"type":"Point","coordinates":[41.390144,54.937440]}},{"type":"Feature","properties":{"id":"154","name":"Дом жилой с лавкой, начало XX века","address":"улица Советская, 2","category":"Регионального значения","group":"regional","source":"Приказ № 2969, прил. 2 + ЕГРОКН","method":"ЕГРОКН: координаты реестра","accuracy":"точно (реестр / здание по адресу)","in_settlement":true,"in_core":true},"geometry":{"type":"Point","coordinates":[41.391853,54.937142]}},{"type":"Feature","properties":{"id":"155","name":"Дом жилой, начало XX века","address":"улица Советская, 4","category":"Ценный градоформирующий объект","group":"value","source":"Приказ № 2969, прил. 2","method":"OSM: здание по адресу","accuracy":"точно (реестр / здание по адресу)","in_settlement":true,"in_core":true},"geometry":{"type":"Point","coordinates":[41.392364,54.937447]}},{"type":"Feature","properties":{"id":"156","name":"Дом жилой, конец XIX века","address":"улица Советская, 5","category":"Ценный градоформирующий объект","group":"value","source":"Приказ № 2969, прил. 2","method":"OSM: здание по адресу","accuracy":"точно (реестр / здание по адресу)","in_settlement":true,"in_core":true},"geometry":{"type":"Point","coordinates":[41.392197,54.938006]}},{"type":"Feature","properties":{"id":"157","name":"Дом жилой, конец XIX – начало XX веков","address":"улица Советская, 6","category":"Ценный градоформирующий объект","group":"value","source":"Приказ № 2969, прил. 2","method":"OSM: здание по адресу","accuracy":"точно (реестр / здание по адресу)","in_settlement":true,"in_core":true},"geometry":{"type":"Point","coordinates":[41.392687,54.937776]}},{"type":"Feature","properties":{"id":"158","name":"Дом Смирнова, начало XX века","address":"улица Советская, 7","category":"Ценный градоформирующий объект","group":"value","source":"Приказ № 2969, прил. 2","method":"OSM: здание по адресу","accuracy":"точно (реестр / здание по адресу)","in_settlement":true,"in_core":true},"geometry":{"type":"Point","coordinates":[41.392501,54.938197]}},{"type":"Feature","properties":{"id":"159","name":"Дом жилой, конец XIX века","address":"улица Советская, 8","category":"Ценный градоформирующий объект","group":"value","source":"Приказ № 2969, прил. 2","method":"OSM: здание по адресу","accuracy":"точно (реестр / здание по адресу)","in_settlement":true,"in_core":true},"geometry":{"type":"Point","coordinates":[41.392950,54.937899]}},{"type":"Feature","properties":{"id":"160","name":"Дом жилой, конец XIX века","address":"улица Советская, 9","category":"Ценный градоформирующий объект","group":"value","source":"Приказ № 2969, прил. 2","method":"интерполяция между д. 7 и 11","accuracy":"приблизительно (соседние дома)","in_settlement":true,"in_core":true},"geometry":{"type":"Point","coordinates":[41.393064,54.938613]}},{"type":"Feature","properties":{"id":"161","name":"Дом жилой, конец XIX века","address":"улица Советская, 10","category":"Ценный градоформирующий объект","group":"value","source":"Приказ № 2969, прил. 2","method":"OSM: здание по адресу","accuracy":"точно (реестр / здание по адресу)","in_settlement":true,"in_core":true},"geometry":{"type":"Point","coordinates":[41.393588,54.938210]}},{"type":"Feature","properties":{"id":"162","name":"Дом жилой, конец XIX века","address":"улица Советская, 11","category":"Ценный градоформирующий объект","group":"value","source":"Приказ № 2969, прил. 2","method":"OSM: здание по адресу","accuracy":"точно (реестр / здание по адресу)","in_settlement":true,"in_core":true},"geometry":{"type":"Point","coordinates":[41.393642,54.938663]}},{"type":"Feature","properties":{"id":"163","name":"Дом жилой, конец XIX – начало XX веков","address":"улица Советская, 12","category":"Ценный градоформирующий объект","group":"value","source":"Приказ № 2969, прил. 2","method":"интерполяция между д. 10 и 14","accuracy":"приблизительно (соседние дома)","in_settlement":true,"in_core":true},"geometry":{"type":"Point","coordinates":[41.393958,54.938367]}},{"type":"Feature","properties":{"id":"164","name":"Дом жилой, конец XIX века","address":"улица Советская, 13","category":"Ценный градоформирующий объект","group":"value","source":"Приказ № 2969, прил. 2","method":"OSM: здание по адресу","accuracy":"точно (реестр / здание по адресу)","in_settlement":true,"in_core":true},"geometry":{"type":"Point","coordinates":[41.393924,54.938805]}},{"type":"Feature","properties":{"id":"165","name":"Торговая лавка, начало XX века","address":"улица Советская, 14а","category":"Ценный градоформирующий объект","group":"value","source":"Приказ № 2969, прил. 2","method":"OSM: здание по адресу","accuracy":"точно (реестр / здание по адресу)","in_settlement":true,"in_core":true},"geometry":{"type":"Point","coordinates":[41.394537,54.938719]}},{"type":"Feature","properties":{"id":"166","name":"Дом жилой, конец XIX века","address":"улица Советская, 15","category":"Ценный градоформирующий объект","group":"value","source":"Приказ № 2969, прил. 2","method":"OSM: здание по адресу","accuracy":"точно (реестр / здание по адресу)","in_settlement":true,"in_core":true},"geometry":{"type":"Point","coordinates":[41.394296,54.939012]}},{"type":"Feature","properties":{"id":"167","name":"Дом жилой, конец XIX – начало XX веков","address":"улица Советская, 16","category":"Ценный градоформирующий объект","group":"value","source":"Приказ № 2969, прил. 2","method":"интерполяция между д. 14 и 18","accuracy":"приблизительно (соседние дома)","in_settlement":true,"in_core":true},"geometry":{"type":"Point","coordinates":[41.395118,54.938769]}},{"type":"Feature","properties":{"id":"168","name":"Дом жилой с лавками, начало XX века","address":"улица Советская, 19","category":"Ценный градоформирующий объект","group":"value","source":"Приказ № 2969, прил. 2","method":"OSM: здание по адресу","accuracy":"точно (реестр / здание по адресу)","in_settlement":true,"in_core":true},"geometry":{"type":"Point","coordinates":[41.395232,54.939713]}},{"type":"Feature","properties":{"id":"169","name":"Дом жилой, начало XX века","address":"улица Советская, 20","category":"Ценный градоформирующий объект","group":"value","source":"Приказ № 2969, прил. 2","method":"OSM: здание по адресу","accuracy":"точно (реестр / здание по адресу)","in_settlement":true,"in_core":true},"geometry":{"type":"Point","coordinates":[41.396535,54.939648]}},{"type":"Feature","properties":{"id":"170","name":"Дом жилой, конец XIX века","address":"улица Советская, 21","category":"Ценный градоформирующий объект","group":"value","source":"Приказ № 2969, прил. 2","method":"интерполяция между д. 19 и 23","accuracy":"приблизительно (соседние дома)","in_settlement":true,"in_core":true},"geometry":{"type":"Point","coordinates":[41.395752,54.939908]}},{"type":"Feature","properties":{"id":"171","name":"Дом жилой, конец XIX – начало XX веков","address":"улица Советская, 22","category":"Ценный градоформирующий объект","group":"value","source":"Приказ № 2969, прил. 2","method":"OSM: здание по адресу","accuracy":"точно (реестр / здание по адресу)","in_settlement":true,"in_core":false},"geometry":{"type":"Point","coordinates":[41.396934,54.939889]}},{"type":"Feature","properties":{"id":"172","name":"Дом жилой, конец XIX – начало XX веков","address":"улица Советская, 23а","category":"Ценный градоформирующий объект","group":"value","source":"Приказ № 2969, прил. 2","method":"интерполяция между д. 21 и 25","accuracy":"приблизительно (соседние дома)","in_settlement":true,"in_core":false},"geometry":{"type":"Point","coordinates":[41.396219,54.940119]}},{"type":"Feature","properties":{"id":"173","name":"Дом жилой, конец XIX – начало XX веков","address":"улица Советская, 24","category":"Ценный градоформирующий объект","group":"value","source":"Приказ № 2969, прил. 2","method":"OSM: здание по адресу","accuracy":"точно (реестр / здание по адресу)","in_settlement":true,"in_core":false},"geometry":{"type":"Point","coordinates":[41.397024,54.940040]}},{"type":"Feature","properties":{"id":"174","name":"Здание кинотеатра «Марс», начало XX века","address":"улица Советская, 25","category":"Ценный градоформирующий объект","group":"value","source":"Приказ № 2969, прил. 2","method":"OSM: здание по адресу","accuracy":"точно (реестр / здание по адресу)","in_settlement":true,"in_core":false},"geometry":{"type":"Point","coordinates":[41.396707,54.940369]}},{"type":"Feature","properties":{"id":"175","name":"Дом жилой, конец XIX века","address":"улица Советская, 27","category":"Ценный градоформирующий объект","group":"value","source":"Приказ № 2969, прил. 2","method":"OSM: здание по адресу","accuracy":"точно (реестр / здание по адресу)","in_settlement":true,"in_core":false},"geometry":{"type":"Point","coordinates":[41.398228,54.941056]}},{"type":"Feature","properties":{"id":"176","name":"Дом жилой, начало XX века","address":"улица Советская, 28","category":"Ценный градоформирующий объект","group":"value","source":"Приказ № 2969, прил. 2","method":"OSM: здание по адресу","accuracy":"точно (реестр / здание по адресу)","in_settlement":true,"in_core":false},"geometry":{"type":"Point","coordinates":[41.398307,54.940224]}},{"type":"Feature","properties":{"id":"177","name":"Дом жилой с торговыми лавками, начало XX века","address":"улица Советская, 30","category":"Ценный градоформирующий объект","group":"value","source":"Приказ № 2969, прил. 2","method":"OSM: здание по адресу","accuracy":"точно (реестр / здание по адресу)","in_settlement":true,"in_core":false},"geometry":{"type":"Point","coordinates":[41.399654,54.941016]}},{"type":"Feature","properties":{"id":"178","name":"Дом жилой, конец XIX – начало XX веков","address":"улица Советская, 32","category":"Ценный градоформирующий объект","group":"value","source":"Приказ № 2969, прил. 2","method":"интерполяция между д. 30 и 34","accuracy":"приблизительно (соседние дома)","in_settlement":true,"in_core":false},"geometry":{"type":"Point","coordinates":[41.399652,54.941351]}},{"type":"Feature","properties":{"id":"179","name":"Городская усадьба (комплекс): главный дом, татарская лавка, флигель","address":"улица Советская, 36","category":"Ценный градоформирующий объект","group":"value","source":"Приказ № 2969, прил. 2","method":"OSM: здание по адресу","accuracy":"точно (реестр / здание по адресу)","in_settlement":true,"in_core":false},"geometry":{"type":"Point","coordinates":[41.399763,54.941411]}},{"type":"Feature","properties":{"id":"180","name":"Дом жилой, начало XX века","address":"улица Татарская, 8","category":"Ценный градоформирующий объект","group":"value","source":"Приказ № 2969, прил. 2","method":"OSM: здание по адресу","accuracy":"точно (реестр / здание по адресу)","in_settlement":true,"in_core":false},"geometry":{"type":"Point","coordinates":[41.401365,54.934434]}},{"type":"Feature","properties":{"id":"181","name":"Дом жилой, начало XX века","address":"улица Татарская, 10","category":"Ценный градоформирующий объект","group":"value","source":"Приказ № 2969, прил. 2","method":"OSM: здание по адресу","accuracy":"точно (реестр / здание по адресу)","in_settlement":true,"in_core":false},"geometry":{"type":"Point","coordinates":[41.402003,54.934777]}},{"type":"Feature","properties":{"id":"182","name":"Дом жилой, начало XX века","address":"улица Чижова, 19","category":"Ценный градоформирующий объект","group":"value","source":"Приказ № 2969, прил. 2","method":"интерполяция между д. 17 и 23","accuracy":"приблизительно (соседние дома)","in_settlement":true,"in_core":false},"geometry":{"type":"Point","coordinates":[41.406240,54.928421]}},{"type":"Feature","properties":{"id":"183","name":"Дом жилой, конец XIX – начало XX веков (угол ул. Нариманова)","address":"улица Чижова, 19","category":"Ценный градоформирующий объект","group":"value","source":"Приказ № 2969, прил. 2","method":"интерполяция между д. 17 и 23","accuracy":"приблизительно (соседние дома)","in_settlement":true,"in_core":false},"geometry":{"type":"Point","coordinates":[41.406240,54.928421]}},{"type":"Feature","properties":{"id":"184","name":"Дом жилой, конец XIX – начало XX веков","address":"переулок Школьный, 1","category":"Регионального значения","group":"regional","source":"Приказ № 2969, прил. 2 + ЕГРОКН","method":"ЕГРОКН: координаты реестра","accuracy":"точно (реестр / здание по адресу)","in_settlement":true,"in_core":true},"geometry":{"type":"Point","coordinates":[41.392248,54.936672]}},{"type":"Feature","properties":{"id":"185","name":"Дом жилой, конец XIX – начало XX веков","address":"переулок Школьный, 5","category":"Ценный градоформирующий объект","group":"value","source":"Приказ № 2969, прил. 2","method":"соседний дом 1","accuracy":"приблизительно (соседние дома)","in_settlement":true,"in_core":true},"geometry":{"type":"Point","coordinates":[41.393089,54.936430]}},{"type":"Feature","properties":{"id":"186","name":"Дом жилой, начало XX века","address":"переулок Школьный, 5а","category":"Ценный градоформирующий объект","group":"value","source":"Приказ № 2969, прил. 2","method":"соседний дом 1","accuracy":"приблизительно (соседние дома)","in_settlement":true,"in_core":true},"geometry":{"type":"Point","coordinates":[41.393089,54.936430]}},{"type":"Feature","properties":{"id":"Е8","name":"Церковь Успения","address":"пл. Соборная, 1а","category":"Федерального значения","group":"federal","source":"ЕГРОКН","method":"OSM: здание по адресу","accuracy":"точно (реестр / здание по адресу)","in_settlement":true,"in_core":true},"geometry":{"type":"Point","coordinates":[41.391692,54.936110]}},{"type":"Feature","properties":{"id":"Е10","name":"Татарская лавка","address":"ул. Советская, 139","category":"Регионального значения","group":"regional","source":"ЕГРОКН","method":"ЕГРОКН: координаты реестра","accuracy":"точно (реестр / здание по адресу)","in_settlement":false,"in_core":false},"geometry":{"type":"Point","coordinates":[41.410547,54.947852]}},{"type":"Feature","properties":{"id":"Е14","name":"Комплекс","address":"ул. Садовая, 3д","category":"Регионального значения","group":"regional","source":"ЕГРОКН","method":"ЕГРОКН: координаты реестра","accuracy":"точно (реестр / здание по адресу)","in_settlement":true,"in_core":false},"geometry":{"type":"Point","coordinates":[41.396244,54.941793]}},{"type":"Feature","properties":{"id":"Е15","name":"Дом и склады Салазкина (Баркова)","address":"ул. Советская, 17/2","category":"Регионального значения","group":"regional","source":"ЕГРОКН","method":"OSM: здание по адресу","accuracy":"точно (реестр / здание по адресу)","in_settlement":true,"in_core":true},"geometry":{"type":"Point","coordinates":[41.391832,54.937175]}},{"type":"Feature","properties":{"id":"Е17","name":"Дом, в котором жил П.А. Оленин-Волгарь в 1917-1920 гг.","address":"ул. Советская, 55а/2","category":"Местного (муниципального) значения","group":"local","source":"ЕГРОКН","method":"OSM: здание по адресу","accuracy":"точно (реестр / здание по адресу)","in_settlement":true,"in_core":true},"geometry":{"type":"Point","coordinates":[41.391832,54.937175]}},{"type":"Feature","properties":{"id":"Е29","name":"Дом меценатов Шакуловых","address":"пл. Победы, 22","category":"Местного (муниципального) значения","group":"local","source":"ЕГРОКН","method":"Nominatim","accuracy":"приблизительно (соседние дома)","in_settlement":true,"in_core":false},"geometry":{"type":"Point","coordinates":[41.399621,54.933337]}},{"type":"Feature","properties":{"id":"Е48","name":"Дом Шемякина (с плафоном и печами)","address":"ул. Набережная, 34","category":"Регионального значения","group":"regional","source":"ЕГРОКН","method":"ЕГРОКН: координаты реестра","accuracy":"точно (реестр / здание по адресу)","in_settlement":true,"in_core":false},"geometry":{"type":"Point","coordinates":[41.380813,54.93882]}},{"type":"Feature","properties":{"id":"Е50","name":"Татарская лавка И.М. Абухова","address":"ул. Карла Маркса, 18в","category":"Местного (муниципального) значения","group":"local","source":"ЕГРОКН","method":"ЕГРОКН: координаты реестра","accuracy":"точно (реестр / здание по адресу)","in_settlement":true,"in_core":false},"geometry":{"type":"Point","coordinates":[41.390207,54.942100]}}]}