{"type":"FeatureCollection","features":[{"type":"Feature","properties":{"id":"159","name":"Дом жилой, конец XIX века","group":"value"},"geometry":{"type":"Polygon","coordinates":[[[41.392719,54.937859],[41.393024,54.938020],[41.393185,54.937920],[41.393049,54.937849],[41.392999,54.93788],[41.392925,54.937840],[41.392951,54.937824],[41.392855,54.937774],[41.392719,54.937859]]]}},{"type":"Feature","properties":{"id":"157","name":"Дом жилой, конец XIX – начало XX веков","group":"value"},"geometry":{"type":"Polygon","coordinates":[[[41.392719,54.937859],[41.392834,54.937787],[41.392656,54.937693],[41.392540,54.937765],[41.392719,54.937859]]]}},{"type":"Feature","properties":{"id":"6","name":"Старая Татарская мечеть, 1476 год","group":"federal"},"geometry":{"type":"Polygon","coordinates":[[[41.397594,54.933268],[41.397621,54.933291],[41.397598,54.93332],[41.397890,54.933314],[41.397881,54.933161],[41.397584,54.933166],[41.397594,54.933268]]]}},{"type":"Feature","properties":{"id":"156","name":"Дом жилой, конец XIX века","group":"value"},"geometry":{"type":"Polygon","coordinates":[[[41.392315,54.938142],[41.392477,54.938040],[41.392132,54.937866],[41.391899,54.938019],[41.391991,54.938065],[41.392065,54.938016],[41.392315,54.938142]]]}},{"type":"Feature","properties":{"id":"158","name":"Дом Смирнова, начало XX века","group":"value"},"geometry":{"type":"Polygon","coordinates":[[[41.392477,54.938040],[41.392288,54.938159],[41.392385,54.938208],[41.392300,54.938264],[41.392485,54.938357],[41.392735,54.938196],[41.392727,54.938166],[41.392477,54.938040]]]}},{"type":"Feature","properties":{"id":"26","name":"Здание выездной сессии, казначейства и мирового суда, XIX век","group":"regional"},"geometry":{"type":"Polygon","coordinates":[[[41.391345,54.937760],[41.391458,54.937821],[41.391738,54.937650],[41.391245,54.937384],[41.390950,54.937564],[41.391064,54.937626],[41.391250,54.937513],[41.391516,54.937656],[41.391345,54.937760]]]}},{"type":"Feature","properties":{"id":"149","name":"Дом жилой, начало XX века","group":"value"},"geometry":{"type":"Polygon","coordinates":[[[41.391458,54.937821],[41.391304,54.937738],[41.391098,54.937864],[41.391252,54.937947],[41.391458,54.937821]]]}},{"type":"Feature","properties":{"id":"161","name":"Дом жилой, конец XIX века","group":"value"},"geometry":{"type":"Polygon","coordinates":[[[41.393344,54.938141],[41.393719,54.938347],[41.393832,54.938279],[41.393457,54.938074],[41.393344,54.938141]]]}},{"type":"Feature","properties":{"id":"12","name":"Церковь Успения, XVIII век","group":"federal"},"geometry":{"type":"Polygon","coordinates":[[[41.391293,54.936057],[41.391917,54.936354],[41.392144,54.936197],[41.391543,54.935892],[41.391353,54.935919],[41.391280,54.935984],[41.391293,54.936057]]]}},{"type":"Feature","properties":{"id":"152","name":"Дом жилой с лавками, конец XIX века; надворные хозпостройки","group":"value"},"geometry":{"type":"Polygon","coordinates":[[[41.389359,54.936176],[41.389519,54.936258],[41.390061,54.935909],[41.389900,54.935827],[41.389359,54.936176]]]}},{"type":"Feature","properties":{"id":"28","name":"Здание технического училища, XIX век","group":"regional"},"geometry":{"type":"Polygon","coordinates":[[[41.395216,54.939175],[41.396019,54.939600],[41.396280,54.939428],[41.395761,54.939137],[41.396092,54.938932],[41.396673,54.939223],[41.396842,54.939116],[41.396065,54.938714],[41.395831,54.938833],[41.395542,54.939034],[41.395487,54.939014],[41.395364,54.939082],[41.395257,54.939024],[41.396046,54.938552],[41.396515,54.938812],[41.39664,54.938732],[41.396040,54.938411],[41.394980,54.939053],[41.395109,54.939114],[41.395208,54.939062],[41.395312,54.939113],[41.395216,54.939175]]]}},{"type":"Feature","properties":{"id":"10","name":"Три корпуса Торговых рядов, XIX век","group":"federal"},"geometry":{"type":"Polygon","coordinates":[[[41.389783,54.936327],[41.389973,54.936426],[41.390716,54.935954],[41.390527,54.935855],[41.389783,54.936327]]]}},{"type":"Feature","properties":{"id":"36","name":"Вознесенский собор, 1854 год","group":"regional"},"geometry":{"type":"Polygon","coordinates":[[[41.390579,54.937117],[41.390987,54.937358],[41.391346,54.937157],[41.390938,54.936916],[41.390579,54.937117]]]}},{"type":"Feature","properties":{"id":"33","name":"Дом Алянчикова, 1844 год","group":"regional"},"geometry":{"type":"Polygon","coordinates":[[[41.39106,54.935512],[41.391494,54.935720],[41.391746,54.935560],[41.391321,54.935343],[41.39106,54.935512]]]}},{"type":"Feature","properties":{"id":"5","name":"Церковь Георгиевская, 1700 год","group":"federal"},"geometry":{"type":"Polygon","coordinates":[[[41.403805,54.925002],[41.403879,54.924727],[41.404394,54.924773],[41.404321,54.925048],[41.403805,54.925002]]]}},{"type":"Feature","properties":{"id":"41","name":"Дом Кострова, 2-я половина XIX века","group":"local"},"geometry":{"type":"Polygon","coordinates":[[[41.399597,54.934205],[41.399835,54.934330],[41.399972,54.934244],[41.400211,54.934369],[41.400337,54.934289],[41.399876,54.934052],[41.399829,54.934059],[41.399597,54.934205]]]}},{"type":"Feature","properties":{"id":"154","name":"Дом жилой с лавкой, начало XX века","group":"regional"},"geometry":{"type":"Polygon","coordinates":[[[41.392128,54.937103],[41.391929,54.936999],[41.391536,54.937247],[41.391735,54.937351],[41.392128,54.937103]]]}},{"type":"Feature","properties":{"id":"175","name":"Дом жилой, конец XIX века","group":"value"},"geometry":{"type":"Polygon","coordinates":[[[41.398097,54.941047],[41.398260,54.94113],[41.398359,54.941065],[41.398197,54.940982],[41.398097,54.941047]]]}},{"type":"Feature","properties":{"id":"1","name":"Текие Авгана, 1616 год","group":"federal"},"geometry":{"type":"Polygon","coordinates":[[[41.42017,54.916959],[41.420207,54.917047],[41.420302,54.917034],[41.420264,54.916946],[41.42017,54.916959]]]}},{"type":"Feature","properties":{"id":"179","name":"Городская усадьба (комплекс): главный дом, татарская лавка, флигель","group":"value"},"geometry":{"type":"Polygon","coordinates":[[[41.399603,54.941422],[41.399762,54.941319],[41.399921,54.941401],[41.399765,54.941503],[41.399603,54.941422]]]}},{"type":"Feature","properties":{"id":"177","name":"Дом жилой с торговыми лавками, начало XX века","group":"value"},"geometry":{"type":"Polygon","coordinates":[[[41.399553,54.941128],[41.399468,54.941083],[41.399755,54.940904],[41.39984,54.940949],[41.399553,54.941128]]]}},{"type":"Feature","properties":{"id":"121","name":"Дом жилой, начало XX века","group":"value"},"geometry":{"type":"Polygon","coordinates":[[[41.400984,54.938125],[41.401067,54.938066],[41.401160,54.938109],[41.401077,54.938168],[41.400984,54.938125]]]}},{"type":"Feature","properties":{"id":"7","name":"Текие Шах-Али, 1555 год","group":"federal"},"geometry":{"type":"Polygon","coordinates":[[[41.396488,54.932900],[41.396453,54.932824],[41.396664,54.932792],[41.396699,54.932867],[41.396488,54.932900]]]}},{"type":"Feature","properties":{"id":"Е29","name":"Дом меценатов Шакуловых","group":"local"},"geometry":{"type":"Polygon","coordinates":[[[41.399393,54.933290],[41.399704,54.933467],[41.399848,54.933383],[41.399538,54.933206],[41.399393,54.933290]]]}},{"type":"Feature","properties":{"id":"180","name":"Дом жилой, начало XX века","group":"value"},"geometry":{"type":"Polygon","coordinates":[[[41.401241,54.934462],[41.401353,54.934515],[41.401457,54.934442],[41.401413,54.934421],[41.401475,54.934378],[41.401408,54.934346],[41.401241,54.934462]]]}},{"type":"Feature","properties":{"id":"181","name":"Дом жилой, начало XX века","group":"value"},"geometry":{"type":"Polygon","coordinates":[[[41.401872,54.934798],[41.402025,54.934702],[41.402137,54.934757],[41.401978,54.934854],[41.401872,54.934798]]]}},{"type":"Feature","properties":{"id":"47","name":"Дом, в котором жил Закир-Хади, начало XX века","group":"value"},"geometry":{"type":"Polygon","coordinates":[[[41.406691,54.935391],[41.406762,54.935349],[41.406633,54.935277],[41.406562,54.935319],[41.406691,54.935391]]]}},{"type":"Feature","properties":{"id":"60","name":"Дом жилой с лавкой, конец XIX – начало XX веков","group":"value"},"geometry":{"type":"Polygon","coordinates":[[[41.391061,54.939161],[41.390712,54.938979],[41.391277,54.938623],[41.391626,54.938806],[41.391269,54.939030],[41.391313,54.939053],[41.391171,54.939143],[41.391127,54.939120],[41.391061,54.939161]]]}},{"type":"Feature","properties":{"id":"109","name":"Дом жилой, начало XX века","group":"value"},"geometry":{"type":"Polygon","coordinates":[[[41.391902,54.940479],[41.391827,54.940372],[41.392222,54.940281],[41.392297,54.940388],[41.391902,54.940479]]]}},{"type":"Feature","properties":{"id":"19","name":"Дом (угловой), начало XIX века","group":"regional"},"geometry":{"type":"Polygon","coordinates":[[[41.392910,54.940838],[41.392809,54.940685],[41.393063,54.940630],[41.393164,54.940783],[41.392910,54.940838]]]}},{"type":"Feature","properties":{"id":"185","name":"Дом жилой, конец XIX – начало XX веков","group":"value"},"geometry":{"type":"Polygon","coordinates":[[[41.393043,54.936681],[41.393241,54.936556],[41.393107,54.936485],[41.393289,54.936371],[41.393334,54.936395],[41.393477,54.936306],[41.39324,54.936180],[41.392716,54.936508],[41.393043,54.936681]]]}},{"type":"Feature","properties":{"id":"30","name":"Татарская лавка, XIX век","group":"regional"},"geometry":{"type":"Polygon","coordinates":[[[41.399995,54.942917],[41.399785,54.942802],[41.400487,54.942380],[41.400696,54.942495],[41.399995,54.942917]]]}},{"type":"Feature","properties":{"id":"107","name":"Дом жилой, конец XIX – начало XX веков","group":"value"},"geometry":{"type":"Polygon","coordinates":[[[41.392763,54.940166],[41.392556,54.940051],[41.392735,54.939946],[41.392946,54.940058],[41.392763,54.940166]]]}},{"type":"Feature","properties":{"id":"174","name":"Здание кинотеатра «Марс», начало XX века","group":"value"},"geometry":{"type":"Polygon","coordinates":[[[41.396781,54.940546],[41.396676,54.940487],[41.396719,54.940461],[41.396422,54.940293],[41.396584,54.940199],[41.396986,54.940427],[41.396781,54.940546]]]}},{"type":"Feature","properties":{"id":"35","name":"Дом Скорнякова (Львова), XVIII век","group":"regional"},"geometry":{"type":"Polygon","coordinates":[[[41.389423,54.937905],[41.389033,54.937713],[41.389228,54.937583],[41.389617,54.937775],[41.389423,54.937905]]]}},{"type":"Feature","properties":{"id":"11","name":"Дом Наставина, XVIII век","group":"federal"},"geometry":{"type":"Polygon","coordinates":[[[41.390232,54.938278],[41.390387,54.938175],[41.390140,54.938053],[41.389897,54.938214],[41.389991,54.938261],[41.390079,54.938202],[41.390232,54.938278]]]}},{"type":"Feature","properties":{"id":"155","name":"Дом жилой, начало XX века","group":"value"},"geometry":{"type":"Polygon","coordinates":[[[41.392484,54.937736],[41.391924,54.93745],[41.392376,54.937157],[41.392579,54.937261],[41.392502,54.937311],[41.392767,54.937447],[41.392547,54.937589],[41.392639,54.937635],[41.392484,54.937736]]]}},{"type":"Feature","properties":{"id":"56","name":"Дом Азовцева, 1824-1826 годы","group":"local"},"geometry":{"type":"Polygon","coordinates":[[[41.394357,54.938713],[41.393948,54.938498],[41.394177,54.938365],[41.394404,54.938496],[41.394607,54.938379],[41.394734,54.938453],[41.394529,54.938571],[41.394519,54.938613],[41.394357,54.938713]]]}},{"type":"Feature","properties":{"id":"42","name":"Татарская лавка, XIX век","group":"local"},"geometry":{"type":"Polygon","coordinates":[[[41.397781,54.929978],[41.397885,54.929887],[41.397982,54.929933],[41.397873,54.930023],[41.397781,54.929978]]]}},{"type":"Feature","properties":{"id":"144","name":"Дом жилой, конец XIX – начало XX веков","group":"value"},"geometry":{"type":"Polygon","coordinates":[[[41.386470,54.936634],[41.386813,54.936668],[41.386839,54.936581],[41.386496,54.936547],[41.386470,54.936634]]]}},{"type":"Feature","properties":{"id":"135","name":"Здание мечети с минаретом, 1906 год","group":"value"},"geometry":{"type":"Polygon","coordinates":[[[41.407776,54.932057],[41.407888,54.931986],[41.407794,54.931938],[41.407682,54.932009],[41.407554,54.931942],[41.407421,54.932026],[41.407948,54.932299],[41.408080,54.932215],[41.407776,54.932057]]]}},{"type":"Feature","properties":{"id":"63","name":"Дом жилой, 2-я половина XIX века","group":"value"},"geometry":{"type":"Polygon","coordinates":[[[41.390481,54.940268],[41.390169,54.940114],[41.390365,54.939983],[41.390536,54.940067],[41.390465,54.940115],[41.390557,54.940160],[41.390502,54.940197],[41.390550,54.940221],[41.390481,54.940268]]]}},{"type":"Feature","properties":{"id":"61","name":"Дом жилой с лавкой, конец XIX – начало XX веков","group":"value"},"geometry":{"type":"Polygon","coordinates":[[[41.392053,54.938945],[41.392219,54.938838],[41.392343,54.938900],[41.392269,54.938949],[41.392487,54.939060],[41.392395,54.939119],[41.392053,54.938945]]]}},{"type":"Feature","properties":{"id":"136","name":"Дом жилой, конец XIX – начало XX века","group":"value"},"geometry":{"type":"Polygon","coordinates":[[[41.407224,54.932725],[41.407384,54.932625],[41.407203,54.932529],[41.407043,54.932628],[41.407224,54.932725]]]}},{"type":"Feature","properties":{"id":"75","name":"Городская усадьба. Дом жилой, начало XX века","group":"value"},"geometry":{"type":"Polygon","coordinates":[[[41.400240,54.934367],[41.400354,54.934296],[41.400554,54.934401],[41.400100,54.934686],[41.399925,54.934594],[41.399718,54.934724],[41.399614,54.934669],[41.399810,54.934547],[41.399399,54.934330],[41.399523,54.934253],[41.400089,54.934551],[41.400317,54.934408],[41.400240,54.934367]]]}},{"type":"Feature","properties":{"id":"44","name":"Дом Резвякова, середина XIX века","group":"value"},"geometry":{"type":"Polygon","coordinates":[[[41.399543,54.931153],[41.399695,54.931227],[41.399590,54.931305],[41.399437,54.931227],[41.399543,54.931153]]]}},{"type":"Feature","properties":{"id":"81","name":"Городская усадьба, конец XIX – начало XX веков","group":"value"},"geometry":{"type":"Polygon","coordinates":[[[41.400301,54.931697],[41.400440,54.931601],[41.400196,54.931494],[41.400063,54.931589],[41.400301,54.931697]]]}},{"type":"Feature","properties":{"id":"84","name":"Дом жилой, начало XX века","group":"value"},"geometry":{"type":"Polygon","coordinates":[[[41.402346,54.930121],[41.402466,54.930188],[41.402595,54.930121],[41.402331,54.929967],[41.402247,54.930007],[41.402398,54.930094],[41.402346,54.930121]]]}},{"type":"Feature","properties":{"id":"83","name":"Дом жилой, начало XX века","group":"value"},"geometry":{"type":"Polygon","coordinates":[[[41.402115,54.930416],[41.402237,54.930344],[41.402087,54.930264],[41.402038,54.930294],[41.401931,54.930236],[41.401865,54.930274],[41.402115,54.930416]]]}},{"type":"Feature","properties":{"id":"58","name":"Татарская лавка, XIX век","group":"local"},"geometry":{"type":"Polygon","coordinates":[[[41.399214,54.942273],[41.399351,54.942181],[41.399540,54.942268],[41.399392,54.942362],[41.399214,54.942273]]]}},{"type":"Feature","properties":{"id":"139","name":"Дом жилой, начало XX века","group":"value"},"geometry":{"type":"Polygon","coordinates":[[[41.397217,54.942152],[41.397399,54.942248],[41.397518,54.942174],[41.397336,54.942078],[41.397217,54.942152]]]}},{"type":"Feature","properties":{"id":"118","name":"Дом жилой, начало XX века","group":"value"},"geometry":{"type":"Polygon","coordinates":[[[41.397273,54.943626],[41.397413,54.943544],[41.397516,54.943591],[41.397371,54.943681],[41.397273,54.943626]]]}},{"type":"Feature","properties":{"id":"59","name":"Дом П.А. Оленина-Волгаря, начало XX века","group":"value"},"geometry":{"type":"Polygon","coordinates":[[[41.400487,54.942720],[41.400649,54.942619],[41.400759,54.942677],[41.400597,54.942778],[41.400487,54.942720]]]}},{"type":"Feature","properties":{"id":"168","name":"Дом жилой с лавками, начало XX века","group":"value"},"geometry":{"type":"Polygon","coordinates":[[[41.395273,54.939527],[41.395512,54.939651],[41.395084,54.939905],[41.394943,54.939827],[41.395230,54.939669],[41.395121,54.939614],[41.395273,54.939527]]]}},{"type":"Feature","properties":{"id":"170","name":"Дом жилой, конец XIX века","group":"value"},"geometry":{"type":"Polygon","coordinates":[[[41.395554,54.939829],[41.395703,54.939740],[41.395939,54.939853],[41.395683,54.940011],[41.395579,54.939957],[41.395680,54.939897],[41.395554,54.939829]]]}},{"type":"Feature","properties":{"id":"169","name":"Дом жилой, начало XX века","group":"value"},"geometry":{"type":"Polygon","coordinates":[[[41.396307,54.939742],[41.396380,54.939783],[41.396762,54.939555],[41.396693,54.939512],[41.396307,54.939742]]]}},{"type":"Feature","properties":{"id":"171","name":"Дом жилой, конец XIX – начало XX веков","group":"value"},"geometry":{"type":"Polygon","coordinates":[[[41.396699,54.939940],[41.397002,54.939750],[41.397176,54.939846],[41.396846,54.940029],[41.396699,54.939940]]]}},{"type":"Feature","properties":{"id":"173","name":"Дом жилой, конец XIX – начало XX веков","group":"value"},"geometry":{"type":"Polygon","coordinates":[[[41.396867,54.940039],[41.397017,54.939951],[41.397176,54.940039],[41.397041,54.940131],[41.396867,54.940039]]]}},{"type":"Feature","properties":{"id":"176","name":"Дом жилой, начало XX века","group":"value"},"geometry":{"type":"Polygon","coordinates":[[[41.398200,54.940229],[41.398302,54.940163],[41.398413,54.940218],[41.398314,54.940285],[41.398200,54.940229]]]}},{"type":"Feature","properties":{"id":"67","name":"Дом жилой, конец XIX века","group":"value"},"geometry":{"type":"Polygon","coordinates":[[[41.393136,54.937786],[41.393414,54.937615],[41.393551,54.937689],[41.393273,54.937859],[41.393136,54.937786]]]}},{"type":"Feature","properties":{"id":"145","name":"Дом жилой, конец XIX – начало XX веков","group":"value"},"geometry":{"type":"Polygon","coordinates":[[[41.387210,54.937672],[41.386978,54.937550],[41.387047,54.937507],[41.387279,54.937628],[41.387210,54.937672]]]}},{"type":"Feature","properties":{"id":"132","name":"Дом жилой, начало XX века","group":"value"},"geometry":{"type":"Polygon","coordinates":[[[41.38545,54.937182],[41.385355,54.937142],[41.385497,54.937033],[41.385591,54.937073],[41.38545,54.937182]]]}},{"type":"Feature","properties":{"id":"130","name":"Дом жилой, начало XX века","group":"value"},"geometry":{"type":"Polygon","coordinates":[[[41.383259,54.937964],[41.383132,54.937847],[41.383373,54.937760],[41.383500,54.937877],[41.383259,54.937964]]]}},{"type":"Feature","properties":{"id":"126","name":"Городская усадьба: дом жилой, хозпостройки, начало XIX века","group":"value"},"geometry":{"type":"Polygon","coordinates":[[[41.381655,54.938585],[41.38151,54.938451],[41.381793,54.938349],[41.381938,54.938484],[41.381655,54.938585]]]}},{"type":"Feature","properties":{"id":"125","name":"Дом Качкова, XIX век","group":"value"},"geometry":{"type":"Polygon","coordinates":[[[41.381294,54.938530],[41.381077,54.938620],[41.381210,54.938725],[41.381427,54.938635],[41.381294,54.938530]]]}},{"type":"Feature","properties":{"id":"131","name":"Дом жилой, начало XX века","group":"value"},"geometry":{"type":"Polygon","coordinates":[[[41.383899,54.937713],[41.383768,54.937594],[41.384005,54.937507],[41.384205,54.937689],[41.384082,54.937734],[41.384012,54.937671],[41.383899,54.937713]]]}},{"type":"Feature","properties":{"id":"147","name":"Комплекс Казанского женского монастыря. Башня ограды","group":"value"},"geometry":{"type":"Polygon","coordinates":[[[41.382821,54.939140],[41.383019,54.938934],[41.383197,54.938990],[41.382999,54.939197],[41.382821,54.939140]]]}},{"type":"Feature","properties":{"id":"91","name":"Дом жилой, конец XIX – начало XX веков","group":"value"},"geometry":{"type":"Polygon","coordinates":[[[41.383200,54.939694],[41.383522,54.939854],[41.383680,54.939749],[41.383358,54.939589],[41.383200,54.939694]]]}},{"type":"Feature","properties":{"id":"146","name":"Комплекс Казанского женского монастыря, XIX век","group":"value"},"geometry":{"type":"Polygon","coordinates":[[[41.383735,54.939728],[41.383569,54.939634],[41.383998,54.939393],[41.384159,54.939486],[41.383735,54.939728]]]}},{"type":"Feature","properties":{"id":"Е48","name":"Дом Шемякина (с плафоном и печами)","group":"regional"},"geometry":{"type":"Polygon","coordinates":[[[41.380622,54.938915],[41.380506,54.938811],[41.380777,54.938722],[41.381001,54.938839],[41.380863,54.938924],[41.380770,54.938862],[41.380622,54.938915]]]}},{"type":"Feature","properties":{"id":"124","name":"Дом купца Шемякина, начало XIX века","group":"value"},"geometry":{"type":"Polygon","coordinates":[[[41.380011,54.939075],[41.379932,54.938987],[41.380255,54.938892],[41.380650,54.939099],[41.380537,54.939170],[41.380315,54.939053],[41.380147,54.939103],[41.380099,54.939049],[41.380011,54.939075]]]}},{"type":"Feature","properties":{"id":"50","name":"Дом Шемякина, 2-я половина XIX века","group":"local"},"geometry":{"type":"Polygon","coordinates":[[[41.379663,54.939243],[41.379543,54.939105],[41.379782,54.939036],[41.379903,54.939174],[41.379663,54.939243]]]}},{"type":"Feature","properties":{"id":"22","name":"Дом Вереина, начало XIX века","group":"regional"},"geometry":{"type":"Polygon","coordinates":[[[41.37918,54.939464],[41.379119,54.939387],[41.379081,54.939397],[41.378993,54.939284],[41.379187,54.939234],[41.379335,54.939423],[41.37918,54.939464]]]}},{"type":"Feature","properties":{"id":"3","name":"Дом Барковых, 1828 год","group":"federal"},"geometry":{"type":"Polygon","coordinates":[[[41.375278,54.940388],[41.375189,54.940259],[41.375282,54.940237],[41.375271,54.940222],[41.375476,54.940174],[41.375487,54.940191],[41.375576,54.940170],[41.375666,54.940299],[41.375278,54.940388]]]}},{"type":"Feature","properties":{"id":"8","name":"Церковь Троицы, 1756 год","group":"federal"},"geometry":{"type":"Polygon","coordinates":[[[41.379172,54.941221],[41.379395,54.941068],[41.379752,54.941239],[41.379716,54.941264],[41.379861,54.941333],[41.379732,54.941421],[41.379587,54.941352],[41.379529,54.941392],[41.379172,54.941221]]]}},{"type":"Feature","properties":{"id":"4","name":"Ансамбль Никольской церкви, 1703-1705 гг., XIX в.","group":"federal"},"geometry":{"type":"Polygon","coordinates":[[[41.386430,54.940012],[41.386489,54.939969],[41.386665,54.940049],[41.386769,54.939974],[41.386943,54.940053],[41.386885,54.940096],[41.387023,54.940159],[41.386888,54.940257],[41.386759,54.940199],[41.386694,54.940246],[41.386501,54.940159],[41.386598,54.940088],[41.386430,54.940012]]]}},{"type":"Feature","properties":{"id":"53","name":"Дом Умнова, XIX век","group":"local"},"geometry":{"type":"Polygon","coordinates":[[[41.404519,54.921436],[41.404718,54.921477],[41.404669,54.921556],[41.404866,54.921596],[41.404829,54.921657],[41.404432,54.921576],[41.404519,54.921436]]]}},{"type":"Feature","properties":{"id":"102","name":"Дом Кауфманов, начало XX века","group":"local"},"geometry":{"type":"Polygon","coordinates":[[[41.393954,54.941088],[41.394052,54.941021],[41.393891,54.940944],[41.393793,54.941011],[41.393954,54.941088]]]}},{"type":"Feature","properties":{"id":"88","name":"Дом жилой, конец XIX – начало XX веков","group":"value"},"geometry":{"type":"Polygon","coordinates":[[[41.391300,54.935110],[41.391598,54.934925],[41.39143,54.934836],[41.391132,54.935021],[41.391300,54.935110]]]}},{"type":"Feature","properties":{"id":"9","name":"Церковь Благовещения, 1700 год","group":"federal"},"geometry":{"type":"Polygon","coordinates":[[[41.388727,54.936283],[41.388491,54.936415],[41.388147,54.936211],[41.388383,54.93608],[41.388727,54.936283]]]}},{"type":"Feature","properties":{"id":"48","name":"Жилой дом, конец XIX века","group":"local"},"geometry":{"type":"Polygon","coordinates":[[[41.394770,54.941107],[41.394985,54.940974],[41.394793,54.940871],[41.394577,54.941004],[41.394770,54.941107]]]}},{"type":"Feature","properties":{"id":"34","name":"Дом Гинц, 1824-1826 годы","group":"regional"},"geometry":{"type":"Polygon","coordinates":[[[41.390072,54.935529],[41.389171,54.936030],[41.389023,54.935943],[41.389925,54.935442],[41.390072,54.935529]]]}},{"type":"Feature","properties":{"id":"Е10","name":"Татарская лавка","group":"regional"},"geometry":{"type":"Polygon","coordinates":[[[41.410401,54.947869],[41.410525,54.947935],[41.410653,54.947856],[41.410529,54.947789],[41.410401,54.947869]]]}},{"type":"Feature","properties":{"id":"172","name":"Дом жилой, конец XIX – начало XX веков","group":"value"},"geometry":{"type":"Polygon","coordinates":[[[41.396346,54.940245],[41.396521,54.940137],[41.396197,54.939963],[41.396022,54.940070],[41.396346,54.940245]]]}},{"type":"Feature","properties":{"id":"101","name":"Дом жилой, конец XIX – начало XX веков","group":"value"},"geometry":{"type":"Polygon","coordinates":[[[41.395112,54.940853],[41.394950,54.940765],[41.395108,54.940669],[41.395269,54.940757],[41.395112,54.940853]]]}},{"type":"Feature","properties":{"id":"165","name":"Торговая лавка, начало XX века","group":"value"},"geometry":{"type":"Polygon","coordinates":[[[41.394539,54.938806],[41.394377,54.938729],[41.394537,54.938629],[41.394695,54.938714],[41.394539,54.938806]]]}},{"type":"Feature","properties":{"id":"65","name":"Здание военного госпиталя (1812), начало XIX века","group":"value"},"geometry":{"type":"Polygon","coordinates":[[[41.385975,54.942338],[41.386113,54.942418],[41.386292,54.942315],[41.386153,54.942236],[41.385975,54.942338]]]}},{"type":"Feature","properties":{"id":"37","name":"Дом Ергакова, XIX век","group":"regional"},"geometry":{"type":"Polygon","coordinates":[[[41.388180,54.941380],[41.388455,54.941518],[41.388573,54.941441],[41.388298,54.941303],[41.388180,54.941380]]]}},{"type":"Feature","properties":{"id":"64","name":"Дом жилой, начало XX века","group":"value"},"geometry":{"type":"Polygon","coordinates":[[[41.388476,54.941186],[41.388719,54.941308],[41.388880,54.941203],[41.388637,54.941080],[41.388476,54.941186]]]}},{"type":"Feature","properties":{"id":"17","name":"Дом Салазкина (Баркова), начало XIX века","group":"value"},"geometry":{"type":"Polygon","coordinates":[[[41.390725,54.941309],[41.390866,54.941381],[41.390983,54.941306],[41.390842,54.941234],[41.390725,54.941309]]]}},{"type":"Feature","properties":{"id":"Е50","name":"Татарская лавка И.М. Абухова","group":"local"},"geometry":{"type":"Polygon","coordinates":[[[41.390155,54.942096],[41.39036,54.942204],[41.390434,54.942157],[41.390230,54.942049],[41.390155,54.942096]]]}},{"type":"Feature","properties":{"id":"110","name":"Дом жилой, начало XX века","group":"value"},"geometry":{"type":"Polygon","coordinates":[[[41.390948,54.941593],[41.391163,54.941707],[41.391337,54.941599],[41.391122,54.941485],[41.390948,54.941593]]]}},{"type":"Feature","properties":{"id":"105","name":"Дом жилой, начало XX века","group":"value"},"geometry":{"type":"Polygon","coordinates":[[[41.392729,54.941682],[41.392884,54.941766],[41.393053,54.941663],[41.392898,54.941579],[41.392729,54.941682]]]}},{"type":"Feature","properties":{"id":"104","name":"Дом жилой, начало XX века","group":"value"},"geometry":{"type":"Polygon","coordinates":[[[41.393088,54.941915],[41.393211,54.941980],[41.393414,54.941856],[41.393292,54.941790],[41.393088,54.941915]]]}},{"type":"Feature","properties":{"id":"112","name":"Дом жилой, начало XX века","group":"value"},"geometry":{"type":"Polygon","coordinates":[[[41.394802,54.942320],[41.394938,54.942392],[41.395110,54.942284],[41.394973,54.942212],[41.394802,54.942320]]]}},{"type":"Feature","properties":{"id":"113","name":"Дом жилой, начало XX века","group":"value"},"geometry":{"type":"Polygon","coordinates":[[[41.394681,54.942255],[41.394750,54.942291],[41.394913,54.942190],[41.394845,54.942153],[41.394681,54.942255]]]}},{"type":"Feature","properties":{"id":"103","name":"Дом жилой, начало XX века","group":"value"},"geometry":{"type":"Polygon","coordinates":[[[41.393504,54.941653],[41.393791,54.941796],[41.393869,54.941744],[41.393722,54.941671],[41.393802,54.941618],[41.393662,54.941548],[41.393504,54.941653]]]}},{"type":"Feature","properties":{"id":"148","name":"Дом жилой, начало XX века","group":"value"},"geometry":{"type":"Polygon","coordinates":[[[41.378637,54.942860],[41.378784,54.942940],[41.378900,54.942869],[41.378753,54.94279],[41.378637,54.942860]]]}},{"type":"Feature","properties":{"id":"49","name":"Здание бывшей частной мужской прогимназии Мансуровой, начало XX века","group":"local"},"geometry":{"type":"Polygon","coordinates":[[[41.377647,54.941734],[41.377952,54.941898],[41.378239,54.941722],[41.378288,54.941748],[41.378350,54.941710],[41.378305,54.941686],[41.378449,54.941597],[41.378306,54.941520],[41.378171,54.941604],[41.378094,54.941562],[41.378011,54.941613],[41.378087,54.941654],[41.377933,54.941749],[41.377767,54.941660],[41.377647,54.941734]]]}},{"type":"Feature","properties":{"id":"122","name":"Дом жилой, начало XX века","group":"value"},"geometry":{"type":"Polygon","coordinates":[[[41.378513,54.941861],[41.378672,54.941946],[41.378757,54.941894],[41.378598,54.941809],[41.378513,54.941861]]]}},{"type":"Feature","properties":{"id":"134","name":"Дом жилой, начало XX века","group":"value"},"geometry":{"type":"Polygon","coordinates":[[[41.407878,54.931007],[41.408075,54.931107],[41.408159,54.931053],[41.407961,54.930953],[41.407878,54.931007]]]}},{"type":"Feature","properties":{"id":"162","name":"Дом жилой, конец XIX века","group":"value"},"geometry":{"type":"Polygon","coordinates":[[[41.393479,54.938650],[41.393598,54.938572],[41.393805,54.938677],[41.393687,54.938753],[41.393479,54.938650]]]}},{"type":"Feature","properties":{"id":"164","name":"Дом жилой, конец XIX века","group":"value"},"geometry":{"type":"Polygon","coordinates":[[[41.393687,54.938753],[41.393805,54.938677],[41.394161,54.938858],[41.394048,54.938932],[41.393687,54.938753]]]}},{"type":"Feature","properties":{"id":"166","name":"Дом жилой, конец XIX века","group":"value"},"geometry":{"type":"Polygon","coordinates":[[[41.394224,54.939122],[41.394332,54.939176],[41.394532,54.939044],[41.394161,54.938858],[41.394048,54.938932],[41.394312,54.939064],[41.394224,54.939122]]]}},{"type":"Feature","properties":{"id":"52","name":"Татарская лавка, XIX век","group":"local"},"geometry":{"type":"Polygon","coordinates":[[[41.408853,54.932765],[41.409042,54.932659],[41.409191,54.932742],[41.409012,54.932852],[41.408853,54.932765]]]}},{"type":"Feature","properties":{"id":"108","name":"Дом жилой, конец XIX – начало XX веков","group":"value"},"geometry":{"type":"Polygon","coordinates":[[[41.393139,54.940213],[41.393390,54.940337],[41.393494,54.940268],[41.393422,54.940232],[41.393477,54.940195],[41.393298,54.940107],[41.393139,54.940213]]]}},{"type":"Feature","properties":{"id":"20","name":"Дом Назымова (угловой), XIX век","group":"regional"},"geometry":{"type":"Polygon","coordinates":[[[41.393247,54.941361],[41.393391,54.941442],[41.393568,54.941339],[41.393424,54.941257],[41.393247,54.941361]]]}},{"type":"Feature","properties":{"id":"117","name":"Татарская лавка, начало XX века","group":"value"},"geometry":{"type":"Polygon","coordinates":[[[41.397009,54.944185],[41.397114,54.944239],[41.397434,54.944035],[41.39733,54.943981],[41.397009,54.944185]]]}}]}