{"type":"FeatureCollection","features":[{"type":"Feature","properties":{"n":1,"name":"Точка 1","note":"Характерная точка границы, Приказ № 2969, прил. 1"},"geometry":{"type":"Point","coordinates":[41.372541,54.940521]}},{"type":"Feature","properties":{"n":2,"name":"Точка 2","note":"Характерная точка границы, Приказ № 2969, прил. 1"},"geometry":{"type":"Point","coordinates":[41.379763,54.944492]}},{"type":"Feature","properties":{"n":3,"name":"Точка 3","note":"Характерная точка границы, Приказ № 2969, прил. 1"},"geometry":{"type":"Point","coordinates":[41.382513,54.942778]}},{"type":"Feature","properties":{"n":4,"name":"Точка 4","note":"Характерная точка границы, Приказ № 2969, прил. 1"},"geometry":{"type":"Point","coordinates":[41.389615,54.946277]}},{"type":"Feature","properties":{"n":5,"name":"Точка 5","note":"Характерная точка границы, Приказ № 2969, прил. 1"},"geometry":{"type":"Point","coordinates":[41.393770,54.943564]}},{"type":"Feature","properties":{"n":6,"name":"Точка 6","note":"Характерная точка границы, Приказ № 2969, прил. 1"},"geometry":{"type":"Point","coordinates":[41.394134,54.943731]}},{"type":"Feature","properties":{"n":7,"name":"Точка 7","note":"Характерная точка границы, Приказ № 2969, прил. 1"},"geometry":{"type":"Point","coordinates":[41.394958,54.946043]}},{"type":"Feature","properties":{"n":8,"name":"Точка 8","note":"Характерная точка границы, Приказ № 2969, прил. 1"},"geometry":{"type":"Point","coordinates":[41.395799,54.945968]}},{"type":"Feature","properties":{"n":9,"name":"Точка 9","note":"Характерная точка границы, Приказ № 2969, прил. 1"},"geometry":{"type":"Point","coordinates":[41.399873,54.943343]}},{"type":"Feature","properties":{"n":10,"name":"Точка 10","note":"Характерная точка границы, Приказ № 2969, прил. 1"},"geometry":{"type":"Point","coordinates":[41.406791,54.947085]}},{"type":"Feature","properties":{"n":11,"name":"Точка 11","note":"Характерная точка границы, Приказ № 2969, прил. 1"},"geometry":{"type":"Point","coordinates":[41.409719,54.945265]}},{"type":"Feature","properties":{"n":12,"name":"Точка 12","note":"Характерная точка границы, Приказ № 2969, прил. 1"},"geometry":{"type":"Point","coordinates":[41.400237,54.940197]}},{"type":"Feature","properties":{"n":13,"name":"Точка 13","note":"Характерная точка границы, Приказ № 2969, прил. 1"},"geometry":{"type":"Point","coordinates":[41.401164,54.939200]}},{"type":"Feature","properties":{"n":14,"name":"Точка 14","note":"Характерная точка границы, Приказ № 2969, прил. 1"},"geometry":{"type":"Point","coordinates":[41.404462,54.936998]}},{"type":"Feature","properties":{"n":15,"name":"Точка 15","note":"Характерная точка границы, Приказ № 2969, прил. 1"},"geometry":{"type":"Point","coordinates":[41.404726,54.936292]}},{"type":"Feature","properties":{"n":16,"name":"Точка 16","note":"Характерная точка границы, Приказ № 2969, прил. 1"},"geometry":{"type":"Point","coordinates":[41.406613,54.935621]}},{"type":"Feature","properties":{"n":17,"name":"Точка 17","note":"Характерная точка границы, Приказ № 2969, прил. 1"},"geometry":{"type":"Point","coordinates":[41.410698,54.933095]}},{"type":"Feature","properties":{"n":18,"name":"Точка 18","note":"Характерная точка границы, Приказ № 2969, прил. 1"},"geometry":{"type":"Point","coordinates":[41.408686,54.932067]}},{"type":"Feature","properties":{"n":19,"name":"Точка 19","note":"Характерная точка границы, Приказ № 2969, прил. 1"},"geometry":{"type":"Point","coordinates":[41.410057,54.931182]}},{"type":"Feature","properties":{"n":20,"name":"Точка 20","note":"Характерная точка границы, Приказ № 2969, прил. 1"},"geometry":{"type":"Point","coordinates":[41.406843,54.929526]}},{"type":"Feature","properties":{"n":21,"name":"Точка 21","note":"Характерная точка границы, Приказ № 2969, прил. 1"},"geometry":{"type":"Point","coordinates":[41.408744,54.928299]}},{"type":"Feature","properties":{"n":22,"name":"Точка 22","note":"Характерная точка границы, Приказ № 2969, прил. 1"},"geometry":{"type":"Point","coordinates":[41.408856,54.928172]}},{"type":"Feature","properties":{"n":23,"name":"Точка 23","note":"Характерная точка границы, Приказ № 2969, прил. 1"},"geometry":{"type":"Point","coordinates":[41.409529,54.927700]}},{"type":"Feature","properties":{"n":24,"name":"Точка 24","note":"Характерная точка границы, Приказ № 2969, прил. 1"},"geometry":{"type":"Point","coordinates":[41.410534,54.926058]}},{"type":"Feature","properties":{"n":25,"name":"Точка 25","note":"Характерная точка границы, Приказ № 2969, прил. 1"},"geometry":{"type":"Point","coordinates":[41.410752,54.925696]}},{"type":"Feature","properties":{"n":26,"name":"Точка 26","note":"Характерная точка границы, Приказ № 2969, прил. 1"},"geometry":{"type":"Point","coordinates":[41.411067,54.921326]}},{"type":"Feature","properties":{"n":27,"name":"Точка 27","note":"Характерная точка границы, Приказ № 2969, прил. 1"},"geometry":{"type":"Point","coordinates":[41.413370,54.920660]}},{"type":"Feature","properties":{"n":28,"name":"Точка 28","note":"Характерная точка границы, Приказ № 2969, прил. 1"},"geometry":{"type":"Point","coordinates":[41.413876,54.917833]}},{"type":"Feature","properties":{"n":29,"name":"Точка 29","note":"Характерная точка границы, Приказ № 2969, прил. 1"},"geometry":{"type":"Point","coordinates":[41.414898,54.917226]}},{"type":"Feature","properties":{"n":30,"name":"Точка 30","note":"Характерная точка границы, Приказ № 2969, прил. 1"},"geometry":{"type":"Point","coordinates":[41.419303,54.917513]}},{"type":"Feature","properties":{"n":31,"name":"Точка 31","note":"Характерная точка границы, Приказ № 2969, прил. 1"},"geometry":{"type":"Point","coordinates":[41.420418,54.917727]}},{"type":"Feature","properties":{"n":32,"name":"Точка 32","note":"Характерная точка границы, Приказ № 2969, прил. 1"},"geometry":{"type":"Point","coordinates":[41.420922,54.916828]}},{"type":"Feature","properties":{"n":33,"name":"Точка 33","note":"Характерная точка границы, Приказ № 2969, прил. 1"},"geometry":{"type":"Point","coordinates":[41.420026,54.916636]}},{"type":"Feature","properties":{"n":34,"name":"Точка 34","note":"Характерная точка границы, Приказ № 2969, прил. 1"},"geometry":{"type":"Point","coordinates":[41.418157,54.914450]}},{"type":"Feature","properties":{"n":35,"name":"Точка 35","note":"Характерная точка границы, Приказ № 2969, прил. 1"},"geometry":{"type":"Point","coordinates":[41.418028,54.914262]}},{"type":"Feature","properties":{"n":36,"name":"Точка 36","note":"Характерная точка границы, Приказ № 2969, прил. 1"},"geometry":{"type":"Point","coordinates":[41.415013,54.914182]}},{"type":"Feature","properties":{"n":37,"name":"Точка 37","note":"Характерная точка границы, Приказ № 2969, прил. 1"},"geometry":{"type":"Point","coordinates":[41.414852,54.913879]}},{"type":"Feature","properties":{"n":38,"name":"Точка 38","note":"Характерная точка границы, Приказ № 2969, прил. 1"},"geometry":{"type":"Point","coordinates":[41.414563,54.913883]}},{"type":"Feature","properties":{"n":39,"name":"Точка 39","note":"Характерная точка границы, Приказ № 2969, прил. 1"},"geometry":{"type":"Point","coordinates":[41.407953,54.915038]}},{"type":"Feature","properties":{"n":40,"name":"Точка 40","note":"Характерная точка границы, Приказ № 2969, прил. 1"},"geometry":{"type":"Point","coordinates":[41.406963,54.915049]}}]}