{"type":"FeatureCollection","features":[{"type":"Feature","properties":{"name":"Никольский овраг","source":"схема «Касимовские овраги» (data/Ovrag.png)","area_ha":3},"geometry":{"type":"Polygon","coordinates":[[[41.389425,54.940432],[41.389624,54.940429],[41.389794,54.940297],[41.389478,54.939958],[41.389180,54.939732],[41.389134,54.939619],[41.389181,54.939392],[41.389464,54.939166],[41.389464,54.939052],[41.389323,54.938939],[41.388235,54.938344],[41.387640,54.938163],[41.387242,54.938247],[41.387044,54.938199],[41.386522,54.937923],[41.385581,54.937584],[41.385059,54.937308],[41.384860,54.937261],[41.384662,54.937331],[41.384620,54.937471],[41.384807,54.937697],[41.385654,54.938412],[41.385852,54.938483],[41.386845,54.938573],[41.387242,54.938684],[41.387441,54.938773],[41.387692,54.938941],[41.387887,54.939167],[41.387924,54.939280],[41.387857,54.939506],[41.387948,54.939620],[41.388234,54.939763],[41.388504,54.939846],[41.388932,54.940185],[41.389425,54.940432]]]}},{"type":"Feature","properties":{"name":"Ямской овраг","source":"OSM, разделение по схеме «Касимовские овраги»","area_ha":2.2},"geometry":{"type":"Polygon","coordinates":[[[41.397890,54.939905],[41.398491,54.939505],[41.398227,54.939154],[41.398132,54.938827],[41.398280,54.938495],[41.398786,54.938476],[41.399218,54.938815],[41.399713,54.938561],[41.399839,54.938156],[41.399270,54.938029],[41.398417,54.937914],[41.397764,54.937847],[41.397751,54.937832],[41.396751,54.937852],[41.396900,54.937908],[41.396921,54.938198],[41.397163,54.938749],[41.397247,54.939209],[41.397174,54.939336],[41.397005,54.939457],[41.397890,54.939905]]]}},{"type":"Feature","properties":{"name":"Успенский овраг","source":"OSM, разделение по схеме «Касимовские овраги»","area_ha":5.8},"geometry":{"type":"Polygon","coordinates":[[[41.397342,54.937375],[41.397163,54.937012],[41.396931,54.936649],[41.397016,54.936473],[41.397648,54.936382],[41.398670,54.936280],[41.399428,54.936431],[41.400640,54.936485],[41.401609,54.936437],[41.402399,54.936328],[41.403368,54.936473],[41.403853,54.936364],[41.403737,54.936122],[41.403611,54.936013],[41.403052,54.936237],[41.402547,54.935965],[41.401409,54.936049],[41.400039,54.936086],[41.399028,54.935771],[41.397490,54.935680],[41.396868,54.935686],[41.396289,54.935529],[41.396131,54.935136],[41.396068,54.934893],[41.395636,54.934621],[41.396257,54.934216],[41.395952,54.934240],[41.395204,54.934803],[41.394898,54.935226],[41.394045,54.935717],[41.394856,54.935711],[41.395235,54.935577],[41.395435,54.935922],[41.395383,54.936879],[41.395562,54.937272],[41.395899,54.937714],[41.396542,54.937774],[41.396750,54.937852],[41.397750,54.937832],[41.397342,54.937375]]]}}]}