{"type":"FeatureCollection","features":[{"type":"Feature","properties":{"name":"«Слияние времён»: благоустройство Соборной пл.","note":"Победитель VII Всероссийского конкурса (2022), бюджет 2023 г. — 89 млн ₽"},"geometry":{"type":"Polygon","coordinates":[[[41.389541,54.935565],[41.389383,54.935561],[41.389203,54.935607],[41.388184,54.936180],[41.388125,54.936235],[41.388095,54.936297],[41.388117,54.936403],[41.389046,54.937829],[41.389784,54.938347],[41.389973,54.938408],[41.390119,54.938412],[41.392255,54.938228],[41.392410,54.938194],[41.392989,54.937918],[41.393062,54.937838],[41.393074,54.937748],[41.392617,54.936600],[41.392031,54.935999],[41.391928,54.935931],[41.391788,54.935892],[41.389541,54.935565]]]}},{"type":"Feature","properties":{"name":"Проект набережной","note":"В общей программе развития (~2 млрд ₽)"},"geometry":{"type":"MultiLineString","coordinates":[[[41.385339,54.936861],[41.384839,54.937078],[41.383094,54.937642],[41.380763,54.938521],[41.379116,54.939064],[41.376809,54.939727],[41.373462,54.940619],[41.373029,54.940786],[41.372658,54.940958]],[[41.385339,54.936861],[41.385186,54.936764],[41.385193,54.936718],[41.385313,54.936642],[41.385489,54.936409],[41.385604,54.936342],[41.387667,54.935350],[41.387934,54.935156],[41.390294,54.934005],[41.390631,54.933788],[41.391012,54.933586],[41.391487,54.933150],[41.391927,54.932379],[41.392096,54.932277],[41.392506,54.932087],[41.392852,54.931770],[41.393687,54.931328],[41.394884,54.930480],[41.395561,54.930198],[41.396289,54.929947],[41.397995,54.928700],[41.398432,54.928817],[41.399189,54.928433],[41.400017,54.928800]],[[41.385339,54.936861],[41.385716,54.936701],[41.385873,54.936665],[41.386082,54.936659],[41.386684,54.936729]],[[41.406890,54.919310],[41.406608,54.919270],[41.406162,54.919370],[41.405952,54.919512],[41.404340,54.921494],[41.404214,54.921733],[41.403399,54.922915],[41.403402,54.923089],[41.404774,54.923791]]]}},{"type":"Feature","properties":{"name":"«Третий луч»: Соборная пл. → Набережная","note":"Связь центра с рекой"},"geometry":{"type":"LineString","coordinates":[[41.390233,54.937229],[41.386684,54.936729]]}}]}