{"type":"FeatureCollection","features":[{"type":"Feature","properties":{"name":"Соборная пл.","kind":"Историческая площадь"},"geometry":{"type":"Point","coordinates":[41.390233,54.937229]}},{"type":"Feature","properties":{"name":"пл. Ленина","kind":"Историческая площадь"},"geometry":{"type":"Point","coordinates":[41.392308,54.940898]}},{"type":"Feature","properties":{"name":"пл. Победы","kind":"Историческая площадь"},"geometry":{"type":"Point","coordinates":[41.398957,54.933712]}},{"type":"Feature","properties":{"name":"Никольская пл.","kind":"Историческая площадь"},"geometry":{"type":"Point","coordinates":[41.386742,54.940126]}}]}