{"type":"FeatureCollection","features":[{"type":"Feature","properties":{"name":"Набережная","kind":"Главная улица"},"geometry":{"type":"MultiLineString","coordinates":[[[41.385339,54.936861],[41.384839,54.937078],[41.383094,54.937642],[41.380763,54.938521],[41.379116,54.939064],[41.376809,54.939727],[41.373462,54.940619],[41.373026,54.940787]],[[41.385339,54.936861],[41.385186,54.936764],[41.385193,54.936718],[41.385313,54.936642],[41.385489,54.936409],[41.385604,54.936342],[41.387667,54.935350],[41.387934,54.935156],[41.390294,54.934005],[41.390631,54.933788],[41.391012,54.933586],[41.391487,54.933150],[41.391927,54.932379],[41.392096,54.932277],[41.392506,54.932087],[41.392852,54.931770],[41.393687,54.931328],[41.394884,54.930480],[41.395561,54.930198],[41.396289,54.929947],[41.397995,54.928700],[41.398432,54.928817],[41.399189,54.928433],[41.400017,54.928800]],[[41.385339,54.936861],[41.385716,54.936701],[41.385873,54.936665],[41.386082,54.936659],[41.386684,54.936729]],[[41.406890,54.919310],[41.406608,54.919270],[41.406162,54.919370],[41.405952,54.919512],[41.404340,54.921494],[41.404214,54.921733],[41.403399,54.922915],[41.403402,54.923089],[41.404774,54.923791]]]}},{"type":"Feature","properties":{"name":"Рязанский","kind":"Главная улица"},"geometry":{"type":"LineString","coordinates":[[41.385339,54.936861],[41.385716,54.936701],[41.385873,54.936665],[41.386082,54.936659],[41.387971,54.936876],[41.388266,54.936925],[41.388935,54.937218]]}},{"type":"Feature","properties":{"name":"Советская","kind":"Главная улица"},"geometry":{"type":"LineString","coordinates":[[41.408131,54.946253],[41.403579,54.943779],[41.401157,54.942500],[41.397976,54.940775],[41.391332,54.937263]]}},{"type":"Feature","properties":{"name":"50 лет ВЛКСМ","kind":"Главная улица"},"geometry":{"type":"MultiLineString","coordinates":[[[41.393823,54.943588],[41.394080,54.943429]],[[41.394080,54.943429],[41.394416,54.943610],[41.394628,54.943526],[41.398607,54.941117]],[[41.398127,54.940860],[41.395175,54.942675],[41.394080,54.943429]]]}},{"type":"Feature","properties":{"name":"Ленина","kind":"Главная улица"},"geometry":{"type":"MultiLineString","coordinates":[[[41.401163,54.939201],[41.400150,54.940122],[41.398607,54.941117]],[[41.401185,54.939186],[41.401867,54.938730]],[[41.404612,54.936372],[41.404719,54.936311]],[[41.404797,54.936267],[41.405521,54.935855],[41.405726,54.935773],[41.406287,54.935703],[41.406515,54.935656]]]}},{"type":"Feature","properties":{"name":"Татарская","kind":"Главная улица"},"geometry":{"type":"LineString","coordinates":[[41.404683,54.936407],[41.403003,54.935555],[41.401570,54.934798],[41.399816,54.933923]]}},{"type":"Feature","properties":{"name":"Академика","kind":"Охраняемая улица"},"geometry":{"type":"MultiLineString","coordinates":[[[41.389083,54.940655],[41.387174,54.941892],[41.384345,54.943680]],[[41.392000,54.940748],[41.391079,54.940584],[41.390563,54.940392],[41.390064,54.940169],[41.390043,54.940091],[41.390101,54.940013],[41.390536,54.939729],[41.393015,54.938156]]]}},{"type":"Feature","properties":{"name":"Карла Маркса","kind":"Охраняемая улица"},"geometry":{"type":"LineString","coordinates":[[41.386116,54.944553],[41.388892,54.942772],[41.391613,54.941067],[41.392000,54.940748],[41.393948,54.939551],[41.394719,54.939058]]}},{"type":"Feature","properties":{"name":"Большакова","kind":"Охраняемая улица"},"geometry":{"type":"MultiLineString","coordinates":[[[41.393015,54.938156],[41.394175,54.937422]],[[41.406860,54.929507],[41.402009,54.932546],[41.399978,54.933791],[41.399816,54.933923],[41.399208,54.934273],[41.397310,54.935586]]]}},{"type":"Feature","properties":{"name":"Илюшкина","kind":"Охраняемая улица"},"geometry":{"type":"MultiLineString","coordinates":[[[41.394719,54.939058],[41.396456,54.937982]],[[41.406297,54.931805],[41.405864,54.932112],[41.405346,54.932404],[41.405080,54.932613],[41.404286,54.933099],[41.403964,54.933335],[41.403213,54.933792],[41.402354,54.934270],[41.401570,54.934798],[41.399930,54.935842],[41.399694,54.935857],[41.399458,54.935743],[41.399345,54.935715],[41.398884,54.935688]],[[41.408241,54.930579],[41.407750,54.930924],[41.407349,54.931162],[41.407199,54.931217],[41.406677,54.931559],[41.406640,54.931680],[41.406647,54.931907],[41.406624,54.931979]]]}},{"type":"Feature","properties":{"name":"Карла Либкнехта","kind":"Охраняемая улица"},"geometry":{"type":"LineString","coordinates":[[41.387616,54.945292],[41.393253,54.941623],[41.396195,54.939828]]}},{"type":"Feature","properties":{"name":"Свердлова","kind":"Охраняемая улица"},"geometry":{"type":"LineString","coordinates":[[41.388481,54.937012],[41.383581,54.940032],[41.382700,54.940620],[41.381215,54.941560],[41.38079,54.941853],[41.378031,54.943539]]}},{"type":"Feature","properties":{"name":"Дзержинского","kind":"Охраняемая улица"},"geometry":{"type":"LineString","coordinates":[[41.383581,54.940032],[41.390323,54.943519],[41.392301,54.944523]]}},{"type":"Feature","properties":{"name":"Урицкого","kind":"Охраняемая улица"},"geometry":{"type":"MultiLineString","coordinates":[[[41.395782,54.945970],[41.396444,54.945553]],[[41.401157,54.942500],[41.399895,54.943355]]]}},{"type":"Feature","properties":{"name":"Пролетарская","kind":"Охраняемая улица"},"geometry":{"type":"MultiLineString","coordinates":[[[41.38079,54.941853],[41.381215,54.942022],[41.382652,54.942736],[41.384824,54.943917]],[[41.389629,54.946268],[41.389366,54.946154]]]}},{"type":"Feature","properties":{"name":"Нариманова","kind":"Охраняемая улица"},"geometry":{"type":"MultiLineString","coordinates":[[[41.398785,54.928637],[41.399189,54.928433],[41.400017,54.928800],[41.400482,54.929056],[41.400715,54.929141],[41.400923,54.929154],[41.401053,54.929144],[41.401321,54.929272],[41.401967,54.929656],[41.402725,54.930151]],[[41.409803,54.933649],[41.406297,54.931805],[41.404735,54.931009],[41.404495,54.930776],[41.403614,54.930275],[41.403358,54.930077],[41.403318,54.929935]]]}},{"type":"Feature","properties":{"name":"Комсомольская","kind":"Охраняемая улица"},"geometry":{"type":"MultiLineString","coordinates":[[[41.381551,54.943377],[41.379728,54.944472]],[[41.385390,54.940968],[41.382549,54.942796]]]}},{"type":"Feature","properties":{"name":"Володарского","kind":"Охраняемая улица"},"geometry":{"type":"LineString","coordinates":[[41.394416,54.943610],[41.394464,54.943830],[41.395186,54.946023]]}},{"type":"Feature","properties":{"name":"Воровского","kind":"Охраняемая улица"},"geometry":{"type":"MultiLineString","coordinates":[[[41.390702,54.935634],[41.392151,54.934735]],[[41.397536,54.933436],[41.397315,54.933518],[41.396593,54.933869],[41.396118,54.934014],[41.395424,54.934303],[41.395167,54.934597],[41.394965,54.934926],[41.394805,54.935089],[41.394591,54.935241],[41.394203,54.935414],[41.394019,54.935435],[41.393813,54.935433],[41.392151,54.934735]],[[41.392151,54.934735],[41.392327,54.934663],[41.392487,54.934532],[41.392713,54.934280],[41.394656,54.933218],[41.395607,54.932532],[41.396177,54.932094],[41.396327,54.932038],[41.396450,54.931923],[41.396949,54.931704],[41.397223,54.931558],[41.397521,54.931247]],[[41.397521,54.931247],[41.396760,54.930898],[41.396491,54.930809],[41.395595,54.930324],[41.395561,54.930198]],[[41.398432,54.928817],[41.398155,54.929211],[41.397906,54.929669],[41.397611,54.929922],[41.397549,54.930094],[41.397369,54.930193]],[[41.397521,54.931247],[41.397877,54.931045],[41.398109,54.930890],[41.398389,54.930817],[41.398904,54.930595],[41.399669,54.930055],[41.399781,54.929953],[41.399458,54.929702],[41.399293,54.929448]],[[41.407287,54.92518],[41.405483,54.926340],[41.405370,54.926362],[41.405161,54.926548],[41.403386,54.927690],[41.403051,54.927832],[41.402744,54.928060],[41.402044,54.928497],[41.401687,54.928679]]]}},{"type":"Feature","properties":{"name":"Октябрьская","kind":"Охраняемая улица"},"geometry":{"type":"LineString","coordinates":[[41.407876,54.917957],[41.407738,54.918356],[41.407590,54.918578],[41.407357,54.918868],[41.406810,54.919403],[41.406754,54.919675],[41.406764,54.919847],[41.406834,54.920324],[41.406894,54.920462],[41.407161,54.920874],[41.407272,54.921018],[41.407394,54.921119],[41.408105,54.921616],[41.408244,54.921756],[41.408378,54.921998],[41.408378,54.922152],[41.408338,54.922362],[41.408174,54.922775],[41.408145,54.922957],[41.408175,54.923135],[41.408242,54.923298],[41.408209,54.923409],[41.408105,54.923503],[41.406319,54.924581],[41.404519,54.925741],[41.403060,54.926652],[41.402691,54.926922],[41.402528,54.927144],[41.402552,54.927217],[41.401430,54.927727],[41.400753,54.928286],[41.400919,54.928451],[41.400955,54.928518],[41.400947,54.928625],[41.400808,54.928731],[41.400579,54.928850],[41.400474,54.928869],[41.400227,54.928855],[41.400017,54.928800]]}},{"type":"Feature","properties":{"name":"Кокорева","kind":"Охраняемая улица"},"geometry":{"type":"LineString","coordinates":[[41.401157,54.942500],[41.402714,54.941521]]}},{"type":"Feature","properties":{"name":"Губарева","kind":"Охраняемая улица"},"geometry":{"type":"MultiLineString","coordinates":[[[41.392495,54.936508],[41.393549,54.935862],[41.394203,54.935414]],[[41.398904,54.930595],[41.398945,54.930711],[41.399115,54.930833],[41.400394,54.931467],[41.400605,54.931478],[41.401724,54.930737],[41.402028,54.930600],[41.402725,54.930151],[41.403318,54.929935],[41.403336,54.929783],[41.407149,54.927270],[41.408865,54.926000]]]}},{"type":"Feature","properties":{"name":"Комарова","kind":"Охраняемая улица"},"geometry":{"type":"LineString","coordinates":[[41.393253,54.941623],[41.395175,54.942675],[41.395632,54.942906],[41.398304,54.944355]]}},{"type":"Feature","properties":{"name":"Чижова","kind":"Охраняемая улица"},"geometry":{"type":"LineString","coordinates":[[41.402552,54.927217],[41.403386,54.927690],[41.405126,54.928603],[41.406078,54.929080],[41.406866,54.929510]]}},{"type":"Feature","properties":{"name":"Школьный","kind":"Охраняемая улица"},"geometry":{"type":"LineString","coordinates":[[41.394175,54.937422],[41.392495,54.936508]]}}]}