{"type":"FeatureCollection","features":[{"type":"Feature","properties":{"n":1,"name":"Бровки Никольского оврага"},"geometry":{"type":"Point","coordinates":[41.388341,54.938842]}},{"type":"Feature","properties":{"n":2,"name":"Торговые ряды, корпуса 2–3"},"geometry":{"type":"Point","coordinates":[41.390202,54.936229]}},{"type":"Feature","properties":{"n":3,"name":"Бровки Успенского и Ямского оврагов"},"geometry":{"type":"Point","coordinates":[41.397489,54.935973]}},{"type":"Feature","properties":{"n":4,"name":"Склон и видовые площадки Набережной"},"geometry":{"type":"Point","coordinates":[41.371935,54.940443]}},{"type":"Feature","properties":{"n":5,"name":"Татарская слобода: лавки и усадьбы"},"geometry":{"type":"Point","coordinates":[41.397737,54.933214]}},{"type":"Feature","properties":{"n":6,"name":"Объекты прил. 2, не найденные по адресу"},"geometry":{"type":"Point","coordinates":[41.392308,54.940898]}},{"type":"Feature","properties":{"n":7,"name":"Многоэтажная застройка"},"geometry":{"type":"Point","coordinates":[41.407825,54.930639]}},{"type":"Feature","properties":{"n":8,"name":"Старый посад, Ильинская ц."},"geometry":{"type":"Point","coordinates":[41.411118,54.915818]}}]}