{"type":"FeatureCollection","features":[{"type":"Feature","properties":{"name":"Вид: с Оки → Вознесенский собор"},"geometry":{"type":"LineString","coordinates":[[41.385748,54.934045],[41.390962,54.937137]]}},{"type":"Feature","properties":{"name":"Вид: с Оки → Никольская ц."},"geometry":{"type":"LineString","coordinates":[[41.385748,54.934045],[41.386742,54.940126]]}},{"type":"Feature","properties":{"name":"Вид: устье Бабёнки → Ильинская ц."},"geometry":{"type":"LineString","coordinates":[[41.404033,54.916035],[41.411118,54.915818]]}}]}